 2016 0101 0000  0.0 L                                                         1
 STAT SP IPHASW D HRMN SECON CODA AMPLIT PERI AZIMU VELO AIN AR TRES W  DIS CAZ7
 R10  B   P   0 D 0000 23.26                                                   4
 R13  B   P   0 D 0000 26.94                                                   4
 R16  B   P   0 U 0000 27.48                                                   4
 R12  B   P   0 U 0000 26.13                                                   4
 R3   B   P   0 U 0000 28.35                                                   4
 R1   B   P   0 U 0000 29.16                                                   4
 R7   B   P   0 U 0000 25.16                                                   4
 R5   B   P   0 U 0000 26.49                                                   4
 R15  B   P   0 D 0000 25.75                                                   4
 R2   B   P   0 U 0000 28.19                                                   4
 R4   B   P   0 D 0000 29.56                                                   4
 R14  B   P   0 D 0000 25.51                                                   4
 R6   B   P   0 U 0000 24.88                                                   4
 R8   B   P   0 D 0000 27.08                                                   4
 R9   B   P   0 D 0000 25.43                                                   4
 R11  B   P   0 D 0000 23.67                                                   4
 R9   B   S   0   0000 29.40                                                   4
 R2   B   S   0   0000 34.18                                                   4
 R6   B   S   0   0000 28.45                                                   4
 R16  B   S   0   0000 32.96                                                   4
 R14  B   S   0   0000 29.53                                                   4
 R1   B   S   0   0000 35.87                                                   4
 R3   B   S   0   0000 34.45                                                   4
 R7   B   S   0   0000 28.93                                                   4
 R4   B   S   0   0000 36.55                                                   4
 R12  B   S   0   0000 30.62                                                   4
 R5   B   S   0   0000 31.24                                                   4
 R10  B   S   0   0000 25.65                                                   4
 R13  B   S   0   0000 32.02                                                   4
 R8   B   S   0   0000 32.25                                                   4
 R15  B   S   0   0000 29.95                                                   4
 R11  B   S   0   0000 26.35                                                   4

 2016 0101 0000  0.0 L                                                         1
 STAT SP IPHASW D HRMN SECON CODA AMPLIT PERI AZIMU VELO AIN AR TRES W  DIS CAZ7
 R16  B   P   0 U 0000 51.44                                                   4
 R15  B   P   0 U 0000 49.69                                                   4
 R11  B   P   0 U 0000 46.88                                                   4
 R10  B   P   0 U 0000 45.07                                                   4
 R5   B   P   0 D 0000 42.81                                                   4
 R9   B   P   0 D 0000 45.19                                                   4
 R2   B   P   0 U 0000 45.00                                                   4
 R13  B   P   0 U 0000 48.73                                                   4
 R14  B   P   0 U 0000 48.68                                                   4
 R3   B   P   0 D 0000 46.84                                                   4
 R1   B   P   0 U 0000 45.12                                                   4
 R8   B   P   0 U 0000 48.50                                                   4
 R6   B   P   0 D 0000 42.58                                                   4
 R12  B   P   0 U 0000 49.35                                                   4
 R7   B   P   0 U 0000 45.47                                                   4
 R4   B   P   0 D 0000 49.33                                                   4
 R10  B   S   0   0000 48.79                                                   4
 R4   B   S   0   0000 56.15                                                   4
 R7   B   S   0   0000 49.48                                                   4
 R6   B   S   0   0000 44.46                                                   4
 R14  B   S   0   0000 55.02                                                   4
 R16  B   S   0   0000 59.81                                                   4
 R13  B   S   0   0000 55.12                                                   4
 R11  B   S   0   0000 51.92                                                   4
 R2   B   S   0   0000 48.67                                                   4
 R15  B   S   0   0000 56.77                                                   4
 R3   B   S   0   0000 51.85                                                   4
 R8   B   S   0   0000 54.72                                                   4
 R5   B   S   0   0000 44.87                                                   4
 R1   B   S   0   0000 48.87                                                   4
 R12  B   S   0   0000 56.18                                                   4
 R9   B   S   0   0000 48.99                                                   4

 2016 0101 0001  0.0 L                                                         1
 STAT SP IPHASW D HRMN SECON CODA AMPLIT PERI AZIMU VELO AIN AR TRES W  DIS CAZ7
 R1   B   P   0 U 0001  7.10                                                   4
 R13  B   P   0 U 0001 10.60                                                   4
 R8   B   P   0 U 0001  5.37                                                   4
 R16  B   P   0 U 0001 10.31                                                   4
 R5   B   P   0 D 0001  6.06                                                   4
 R12  B   P   0 U 0001  7.22                                                   4
 R3   B   P   0 D 0001  4.48                                                   4
 R10  B   P   0 D 0001  5.71                                                   4
 R9   B   P   0 U 0001  7.67                                                   4
 R14  B   P   0 U 0001  9.44                                                   4
 R15  B   P   0 U 0001  9.32                                                   4
 R2   B   P   0 U 0001  4.77                                                   4
 R11  B   P   0 U 0001  5.48                                                   4
 R7   B   P   0 D 0001  2.07                                                   4
 R6   B   P   0 D 0001  2.68                                                   4
 R4   B   P   0 D 0001  6.58                                                   4
 R16  B   S   0   0001 17.85                                                   4
 R2   B   S   0   0001  8.26                                                   4
 R3   B   S   0   0001  7.76                                                   4
 R6   B   S   0   0001  4.65                                                   4
 R5   B   S   0   0001 10.50                                                   4
 R1   B   S   0   0001 12.30                                                   4
 R15  B   S   0   0001 16.14                                                   4
 R12  B   S   0   0001 12.50                                                   4
 R8   B   S   0   0001  9.31                                                   4
 R13  B   S   0   0001 18.36                                                   4
 R4   B   S   0   0001 11.40                                                   4
 R11  B   S   0   0001  9.49                                                   4
 R9   B   S   0   0001 13.29                                                   4
 R10  B   S   0   0001  9.90                                                   4
 R7   B   S   0   0001  3.58                                                   4
 R14  B   S   0   0001 16.34                                                   4

 2016 0101 0001  0.0 L                                                         1
 STAT SP IPHASW D HRMN SECON CODA AMPLIT PERI AZIMU VELO AIN AR TRES W  DIS CAZ7
 R4   B   P   0 D 0001 26.71                                                   4
 R15  B   P   0 U 0001 29.60                                                   4
 R8   B   P   0 U 0001 26.17                                                   4
 R11  B   P   0 U 0001 26.25                                                   4
 R6   B   P   0 D 0001 23.21                                                   4
 R3   B   P   0 U 0001 24.56                                                   4
 R1   B   P   0 U 0001 26.08                                                   4
 R14  B   P   0 D 0001 29.47                                                   4
 R9   B   P   0 D 0001 27.36                                                   4
 R10  B   P   0 D 0001 26.03                                                   4
 R2   B   P   0 U 0001 24.23                                                   4
 R12  B   P   0 U 0001 27.87                                                   4
 R7   B   P   0 D 0001 23.64                                                   4
 R13  B   P   0 D 0001 30.30                                                   4
 R16  B   P   0 U 0001 30.65                                                   4
 R5   B   P   0 D 0001 25.46                                                   4
 R15  B   S   0   0001 36.62                                                   4
 R6   B   S   0   0001 25.56                                                   4
 R16  B   S   0   0001 38.44                                                   4
 R1   B   S   0   0001 30.52                                                   4
 R4   B   S   0   0001 31.62                                                   4
 R14  B   S   0   0001 36.40                                                   4
 R13  B   S   0   0001 37.84                                                   4
 R5   B   S   0   0001 29.45                                                   4
 R2   B   S   0   0001 27.32                                                   4
 R9   B   S   0   0001 32.74                                                   4
 R12  B   S   0   0001 33.62                                                   4
 R7   B   S   0   0001 26.30                                                   4
 R10  B   S   0   0001 30.44                                                   4
 R8   B   S   0   0001 30.69                                                   4
 R11  B   S   0   0001 30.82                                                   4
 R3   B   S   0   0001 27.90                                                   4

 2016 0101 0001  0.0 L                                                         1
 STAT SP IPHASW D HRMN SECON CODA AMPLIT PERI AZIMU VELO AIN AR TRES W  DIS CAZ7
 R13  B   P   0 D 0001 49.21                                                   4
 R7   B   P   0 U 0001 44.15                                                   4
 R1   B   P   0 U 0001 46.89                                                   4
 R9   B   P   0 D 0001 46.67                                                   4
 R14  B   P   0 D 0001 48.36                                                   4
 R4   B   P   0 D 0001 47.53                                                   4
 R6   B   P   0 U 0001 43.73                                                   4
 R11  B   P   0 D 0001 45.56                                                   4
 R16  B   P   0 U 0001 49.66                                                   4
 R12  B   P   0 U 0001 47.32                                                   4
 R2   B   P   0 U 0001 45.55                                                   4
 R5   B   P   0 U 0001 45.57                                                   4
 R8   B   P   0 D 0001 46.37                                                   4
 R10  B   P   0 D 0001 45.27                                                   4
 R15  B   P   0 U 0001 48.53                                                   4
 R3   B   P   0 U 0001 45.83                                                   4
 R7   B   S   0   0001 47.18                                                   4
 R2   B   S   0   0001 49.61                                                   4
 R11  B   S   0   0001 49.63                                                   4
 R4   B   S   0   0001 53.03                                                   4
 R5   B   S   0   0001 49.64                                                   4
 R10  B   S   0   0001 49.12                                                   4
 R8   B   S   0   0001 51.03                                                   4
 R6   B   S   0   0001 46.46                                                   4
 R13  B   S   0   0001 55.95                                                   4
 R12  B   S   0   0001 52.68                                                   4
 R9   B   S   0   0001 51.54                                                   4
 R3   B   S   0   0001 50.10                                                   4
 R15  B   S   0   0001 54.77                                                   4
 R16  B   S   0   0001 56.72                                                   4
 R1   B   S   0   0001 51.93                                                   4
 R14  B   S   0   0001 54.47                                                   4

 2016 0101 0002  0.0 L                                                         1
 STAT SP IPHASW D HRMN SECON CODA AMPLIT PERI AZIMU VELO AIN AR TRES W  DIS CAZ7
 R8   B   P   0 U 0002  7.12                                                   4
 R11  B   P   0 U 0002  7.34                                                   4
 R7   B   P   0 U 0002  4.06                                                   4
 R4   B   P   0 D 0002  7.18                                                   4
 R10  B   P   0 U 0002  6.78                                                   4
 R15  B   P   0 U 0002 10.92                                                   4
 R5   B   P   0 D 0002  5.00                                                   4
 R16  B   P   0 U 0002 12.06                                                   4
 R1   B   P   0 U 0002  5.09                                                   4
 R6   B   P   0 D 0002  2.65                                                   4
 R3   B   P   0 D 0002  4.16                                                   4
 R13  B   P   0 U 0002 11.21                                                   4
 R9   B   P   0 U 0002  7.83                                                   4
 R14  B   P   0 U 0002 10.60                                                   4
 R12  B   P   0 U 0002  9.16                                                   4
 R2   B   P   0 U 0002  2.81                                                   4
 R11  B   S   0   0002 12.72                                                   4
 R6   B   S   0   0002  4.58                                                   4
 R3   B   S   0   0002  7.20                                                   4
 R13  B   S   0   0002 19.41                                                   4
 R12  B   S   0   0002 15.87                                                   4
 R14  B   S   0   0002 18.35                                                   4
 R5   B   S   0   0002  8.67                                                   4
 R2   B   S   0   0002  4.86                                                   4
 R16  B   S   0   0002 20.89                                                   4
 R10  B   S   0   0002 11.74                                                   4
 R15  B   S   0   0002 18.91                                                   4
 R4   B   S   0   0002 12.43                                                   4
 R1   B   S   0   0002  8.81                                                   4
 R8   B   S   0   0002 12.34                                                   4
 R9   B   S   0   0002 13.55                                                   4
 R7   B   S   0   0002  7.03                                                   4

 2016 0101 0002  0.0 L                                                         1
 STAT SP IPHASW D HRMN SECON CODA AMPLIT PERI AZIMU VELO AIN AR TRES W  DIS CAZ7
 R13  B   P   0 D 0002 26.53                                                   4
 R9   B   P   0 D 0002 24.36                                                   4
 R12  B   P   0 U 0002 27.47                                                   4
 R6   B   P   0 U 0002 24.32                                                   4
 R16  B   P   0 U 0002 28.81                                                   4
 R4   B   P   0 D 0002 30.01                                                   4
 R11  B   P   0 U 0002 24.79                                                   4
 R7   B   P   0 D 0002 25.60                                                   4
 R15  B   P   0 U 0002 26.81                                                   4
 R14  B   P   0 D 0002 25.85                                                   4
 R5   B   P   0 U 0002 25.25                                                   4
 R2   B   P   0 U 0002 27.63                                                   4
 R1   B   P   0 U 0002 28.14                                                   4
 R10  B   P   0 D 0002 23.18                                                   4
 R8   B   P   0 D 0002 27.98                                                   4
 R3   B   P   0 D 0002 28.36                                                   4
 R8   B   S   0   0002 33.81                                                   4
 R12  B   S   0   0002 32.93                                                   4
 R14  B   S   0   0002 30.13                                                   4
 R9   B   S   0   0002 27.54                                                   4
 R2   B   S   0   0002 33.21                                                   4
 R13  B   S   0   0002 31.31                                                   4
 R15  B   S   0   0002 31.79                                                   4
 R5   B   S   0   0002 29.09                                                   4
 R1   B   S   0   0002 34.10                                                   4
 R3   B   S   0   0002 34.47                                                   4
 R4   B   S   0   0002 37.32                                                   4
 R16  B   S   0   0002 35.25                                                   4
 R6   B   S   0   0002 27.47                                                   4
 R11  B   S   0   0002 28.29                                                   4
 R10  B   S   0   0002 25.50                                                   4
 R7   B   S   0   0002 29.70                                                   4

