 2016 0101 0014  0.0 L                                                         1
 STAT SP IPHASW D HRMN SECON CODA AMPLIT PERI AZIMU VELO AIN AR TRES W  DIS CAZ7
 R8   B   P   0 U 0014 23.98                                                   4
 R10  B   P   0 D 0014 26.40                                                   4
 R9   B   P   0 D 0014 28.70                                                   4
 R4   B   P   0 U 0014 25.87                                                   4
 R12  B   P   0 D 0014 25.42                                                   4
 R7   B   P   0 U 0014 23.34                                                   4
 R2   B   P   0 U 0014 26.78                                                   4
 R1   B   P   0 U 0014 28.97                                                   4
 R5   B   P   0 U 0014 27.99                                                   4
 R3   B   P   0 U 0014 25.47                                                   4
 R14  B   P   0 D 0014 29.08                                                   4
 R15  B   P   0 D 0014 28.25                                                   4
 R6   B   P   0 U 0014 25.28                                                   4
 R11  B   P   0 D 0014 24.97                                                   4
 R13  B   P   0 D 0014 30.66                                                   4
 R16  B   P   0 U 0014 28.50                                                   4
 R10  B   S   0   0014 31.09                                                   4
 R13  B   S   0   0014 38.45                                                   4
 R3   B   S   0   0014 29.46                                                   4
 R15  B   S   0   0014 34.28                                                   4
 R6   B   S   0   0014 29.13                                                   4
 R9   B   S   0   0014 35.06                                                   4
 R2   B   S   0   0014 31.74                                                   4
 R11  B   S   0   0014 28.61                                                   4
 R4   B   S   0   0014 30.17                                                   4
 R14  B   S   0   0014 35.72                                                   4
 R12  B   S   0   0014 29.39                                                   4
 R8   B   S   0   0014 26.90                                                   4
 R5   B   S   0   0014 33.83                                                   4
 R1   B   S   0   0014 35.52                                                   4
 R7   B   S   0   0014 25.79                                                   4
 R16  B   S   0   0014 34.71                                                   4

 2016 0101 0014  0.0 L                                                         1
 STAT SP IPHASW D HRMN SECON CODA AMPLIT PERI AZIMU VELO AIN AR TRES W  DIS CAZ7
 R2   B   P   0 U 0014 47.48                                                   4
 R7   B   P   0 D 0014 44.86                                                   4
 R4   B   P   0 D 0014 49.37                                                   4
 R11  B   P   0 U 0014 43.95                                                   4
 R16  B   P   0 U 0014 48.21                                                   4
 R15  B   P   0 U 0014 46.41                                                   4
 R14  B   P   0 D 0014 45.88                                                   4
 R8   B   P   0 D 0014 47.16                                                   4
 R10  B   P   0 D 0014 42.87                                                   4
 R9   B   P   0 D 0014 44.90                                                   4
 R5   B   P   0 U 0014 45.63                                                   4
 R12  B   P   0 U 0014 46.64                                                   4
 R13  B   P   0 D 0014 46.97                                                   4
 R6   B   P   0 U 0014 44.04                                                   4
 R1   B   P   0 U 0014 48.34                                                   4
 R3   B   P   0 D 0014 47.89                                                   4
 R10  B   S   0   0014 44.98                                                   4
 R11  B   S   0   0014 46.83                                                   4
 R12  B   S   0   0014 51.50                                                   4
 R6   B   S   0   0014 47.00                                                   4
 R3   B   S   0   0014 53.66                                                   4
 R16  B   S   0   0014 54.21                                                   4
 R7   B   S   0   0014 48.41                                                   4
 R5   B   S   0   0014 49.75                                                   4
 R15  B   S   0   0014 51.10                                                   4
 R8   B   S   0   0014 52.40                                                   4
 R14  B   S   0   0014 50.18                                                   4
 R2   B   S   0   0014 52.95                                                   4
 R13  B   S   0   0014 52.08                                                   4
 R1   B   S   0   0014 54.43                                                   4
 R9   B   S   0   0014 48.49                                                   4
 R4   B   S   0   0014 56.22                                                   4

 2016 0101 0015  0.0 L                                                         1
 STAT SP IPHASW D HRMN SECON CODA AMPLIT PERI AZIMU VELO AIN AR TRES W  DIS CAZ7
 R12  B   P   0 D 0015  5.66                                                   4
 R4   B   P   0 D 0015 11.61                                                   4
 R2   B   P   0 D 0015 10.89                                                   4
 R11  B   P   0 D 0015  2.54                                                   4
 R14  B   P   0 D 0015  3.91                                                   4
 R6   B   P   0 D 0015  7.01                                                   4
 R8   B   P   0 D 0015  8.26                                                   4
 R3   B   P   0 D 0015 10.75                                                   4
 R10  B   P   0 U 0015  3.29                                                   4
 R13  B   P   0 U 0015  6.82                                                   4
 R5   B   P   0 D 0015  8.86                                                   4
 R7   B   P   0 D 0015  6.75                                                   4
 R16  B   P   0 U 0015  5.98                                                   4
 R9   B   P   0 D 0015  6.54                                                   4
 R15  B   P   0 U 0015  3.33                                                   4
 R1   B   P   0 D 0015 11.97                                                   4
 R14  B   S   0   0015  6.77                                                   4
 R7   B   S   0   0015 11.70                                                   4
 R16  B   S   0   0015 10.37                                                   4
 R8   B   S   0   0015 14.31                                                   4
 R15  B   S   0   0015  5.77                                                   4
 R2   B   S   0   0015 18.86                                                   4
 R3   B   S   0   0015 18.62                                                   4
 R9   B   S   0   0015 11.33                                                   4
 R13  B   S   0   0015 11.82                                                   4
 R12  B   S   0   0015  9.80                                                   4
 R5   B   S   0   0015 15.34                                                   4
 R4   B   S   0   0015 20.10                                                   4
 R1   B   S   0   0015 20.73                                                   4
 R11  B   S   0   0015  4.40                                                   4
 R6   B   S   0   0015 12.15                                                   4
 R10  B   S   0   0015  5.69                                                   4

 2016 0101 0015  0.0 L                                                         1
 STAT SP IPHASW D HRMN SECON CODA AMPLIT PERI AZIMU VELO AIN AR TRES W  DIS CAZ7
 R9   B   P   0 D 0015 25.79                                                   4
 R2   B   P   0 U 0015 26.38                                                   4
 R4   B   P   0 D 0015 28.17                                                   4
 R1   B   P   0 U 0015 27.62                                                   4
 R3   B   P   0 D 0015 26.61                                                   4
 R10  B   P   0 D 0015 23.78                                                   4
 R14  B   P   0 D 0015 27.10                                                   4
 R8   B   P   0 D 0015 26.27                                                   4
 R15  B   P   0 U 0015 27.30                                                   4
 R7   B   P   0 U 0015 23.73                                                   4
 R6   B   P   0 U 0015 23.24                                                   4
 R11  B   P   0 U 0015 24.21                                                   4
 R12  B   P   0 U 0015 26.53                                                   4
 R16  B   P   0 U 0015 28.71                                                   4
 R13  B   P   0 D 0015 28.21                                                   4
 R5   B   P   0 U 0015 25.49                                                   4
 R14  B   S   0   0015 32.30                                                   4
 R2   B   S   0   0015 31.04                                                   4
 R6   B   S   0   0015 25.60                                                   4
 R13  B   S   0   0015 34.21                                                   4
 R12  B   S   0   0015 31.30                                                   4
 R3   B   S   0   0015 31.45                                                   4
 R1   B   S   0   0015 33.20                                                   4
 R4   B   S   0   0015 34.14                                                   4
 R7   B   S   0   0015 26.46                                                   4
 R15  B   S   0   0015 32.65                                                   4
 R16  B   S   0   0015 35.07                                                   4
 R10  B   S   0   0015 26.54                                                   4
 R5   B   S   0   0015 29.50                                                   4
 R11  B   S   0   0015 27.28                                                   4
 R8   B   S   0   0015 30.86                                                   4
 R9   B   S   0   0015 30.02                                                   4

 2016 0101 0015  0.0 L                                                         1
 STAT SP IPHASW D HRMN SECON CODA AMPLIT PERI AZIMU VELO AIN AR TRES W  DIS CAZ7
 R11  B   P   0 U 0015 45.53                                                   4
 R12  B   P   0 U 0015 47.48                                                   4
 R9   B   P   0 D 0015 46.90                                                   4
 R1   B   P   0 U 0015 46.48                                                   4
 R2   B   P   0 U 0015 44.62                                                   4
 R10  B   P   0 U 0015 45.25                                                   4
 R7   B   P   0 U 0015 42.87                                                   4
 R6   B   P   0 D 0015 42.16                                                   4
 R15  B   P   0 U 0015 49.15                                                   4
 R5   B   P   0 D 0015 45.23                                                   4
 R3   B   P   0 D 0015 44.94                                                   4
 R16  B   P   0 U 0015 50.34                                                   4
 R8   B   P   0 U 0015 46.01                                                   4
 R14  B   P   0 U 0015 49.00                                                   4
 R4   B   P   0 D 0015 47.10                                                   4
 R13  B   P   0 U 0015 49.97                                                   4
 R16  B   S   0   0015 57.89                                                   4
 R4   B   S   0   0015 52.30                                                   4
 R5   B   S   0   0015 49.07                                                   4
 R13  B   S   0   0015 57.26                                                   4
 R1   B   S   0   0015 51.22                                                   4
 R9   B   S   0   0015 51.95                                                   4
 R12  B   S   0   0015 52.96                                                   4
 R7   B   S   0   0015 44.97                                                   4
 R2   B   S   0   0015 48.00                                                   4
 R14  B   S   0   0015 55.59                                                   4
 R3   B   S   0   0015 48.56                                                   4
 R10  B   S   0   0015 49.10                                                   4
 R6   B   S   0   0015 43.75                                                   4
 R8   B   S   0   0015 50.41                                                   4
 R11  B   S   0   0015 49.57                                                   4
 R15  B   S   0   0015 55.85                                                   4

 2016 0101 0016  0.0 L                                                         1
 STAT SP IPHASW D HRMN SECON CODA AMPLIT PERI AZIMU VELO AIN AR TRES W  DIS CAZ7
 R1   B   P   0 D 0016  9.47                                                   4
 R6   B   P   0 U 0016  4.40                                                   4
 R15  B   P   0 U 0016  7.49                                                   4
 R10  B   P   0 D 0016  5.04                                                   4
 R5   B   P   0 U 0016  7.73                                                   4
 R3   B   P   0 D 0016  6.21                                                   4
 R9   B   P   0 D 0016  8.08                                                   4
 R16  B   P   0 U 0016  8.19                                                   4
 R4   B   P   0 D 0016  7.08                                                   4
 R8   B   P   0 D 0016  4.05                                                   4
 R11  B   P   0 U 0016  3.23                                                   4
 R7   B   P   0 U 0016  1.96                                                   4
 R13  B   P   0 U 0016 10.22                                                   4
 R12  B   P   0 U 0016  4.74                                                   4
 R2   B   P   0 U 0016  7.27                                                   4
 R14  B   P   0 U 0016  8.35                                                   4
 R1   B   S   0   0016 16.41                                                   4
 R16  B   S   0   0016 14.19                                                   4
 R3   B   S   0   0016 10.76                                                   4
 R5   B   S   0   0016 13.39                                                   4
 R8   B   S   0   0016  7.02                                                   4
 R7   B   S   0   0016  3.39                                                   4
 R10  B   S   0   0016  8.73                                                   4
 R6   B   S   0   0016  7.63                                                   4
 R13  B   S   0   0016 17.70                                                   4
 R2   B   S   0   0016 12.60                                                   4
 R4   B   S   0   0016 12.26                                                   4
 R14  B   S   0   0016 14.46                                                   4
 R9   B   S   0   0016 13.99                                                   4
 R12  B   S   0   0016  8.21                                                   4
 R15  B   S   0   0016 12.98                                                   4
 R11  B   S   0   0016  5.60                                                   4

 2016 0101 0016  0.0 L                                                         1
 STAT SP IPHASW D HRMN SECON CODA AMPLIT PERI AZIMU VELO AIN AR TRES W  DIS CAZ7
 R4   B   P   0 D 0016 27.83                                                   4
 R1   B   P   0 U 0016 28.07                                                   4
 R14  B   P   0 D 0016 27.38                                                   4
 R15  B   P   0 U 0016 27.29                                                   4
 R11  B   P   0 D 0016 24.35                                                   4
 R5   B   P   0 U 0016 26.27                                                   4
 R13  B   P   0 D 0016 28.61                                                   4
 R10  B   P   0 D 0016 24.51                                                   4
 R7   B   P   0 U 0016 23.93                                                   4
 R3   B   P   0 U 0016 26.59                                                   4
 R12  B   P   0 U 0016 26.19                                                   4
 R8   B   P   0 D 0016 25.91                                                   4
 R9   B   P   0 D 0016 26.52                                                   4
 R2   B   P   0 U 0016 26.69                                                   4
 R16  B   P   0 U 0016 28.38                                                   4
 R6   B   P   0 U 0016 24.11                                                   4
 R4   B   S   0   0016 33.55                                                   4
 R10  B   S   0   0016 27.82                                                   4
 R12  B   S   0   0016 30.72                                                   4
 R15  B   S   0   0016 32.61                                                   4
 R5   B   S   0   0016 30.85                                                   4
 R13  B   S   0   0016 34.90                                                   4
 R6   B   S   0   0016 27.12                                                   4
 R2   B   S   0   0016 31.59                                                   4
 R1   B   S   0   0016 33.97                                                   4
 R9   B   S   0   0016 31.29                                                   4
 R16  B   S   0   0016 34.51                                                   4
 R8   B   S   0   0016 30.24                                                   4
 R7   B   S   0   0016 26.81                                                   4
 R14  B   S   0   0016 32.77                                                   4
 R3   B   S   0   0016 31.41                                                   4
 R11  B   S   0   0016 27.53                                                   4

