 2016 0101 0002  0.0 L                                                         1
 STAT SP IPHASW D HRMN SECON CODA AMPLIT PERI AZIMU VELO AIN AR TRES W  DIS CAZ7
 R14  B   P   0 D 0002 48.46                                                   4
 R5   B   P   0 U 0002 46.43                                                   4
 R16  B   P   0 U 0002 49.03                                                   4
 R6   B   P   0 U 0002 43.84                                                   4
 R9   B   P   0 D 0002 47.34                                                   4
 R13  B   P   0 D 0002 49.76                                                   4
 R15  B   P   0 D 0002 48.17                                                   4
 R10  B   P   0 D 0002 45.32                                                   4
 R12  B   P   0 U 0002 46.27                                                   4
 R2   B   P   0 U 0002 45.84                                                   4
 R7   B   P   0 U 0002 43.08                                                   4
 R1   B   P   0 U 0002 47.71                                                   4
 R3   B   P   0 U 0002 45.39                                                   4
 R11  B   P   0 D 0002 44.81                                                   4
 R4   B   P   0 D 0002 46.70                                                   4
 R8   B   P   0 D 0002 45.12                                                   4
 R7   B   S   0   0002 45.33                                                   4
 R9   B   S   0   0002 52.71                                                   4
 R13  B   S   0   0002 56.89                                                   4
 R16  B   S   0   0002 55.63                                                   4
 R5   B   S   0   0002 51.14                                                   4
 R15  B   S   0   0002 54.15                                                   4
 R11  B   S   0   0002 48.32                                                   4
 R4   B   S   0   0002 51.61                                                   4
 R14  B   S   0   0002 54.64                                                   4
 R12  B   S   0   0002 50.85                                                   4
 R2   B   S   0   0002 50.11                                                   4
 R3   B   S   0   0002 49.33                                                   4
 R1   B   S   0   0002 53.35                                                   4
 R6   B   S   0   0002 46.64                                                   4
 R10  B   S   0   0002 49.21                                                   4
 R8   B   S   0   0002 48.86                                                   4

 2016 0101 0003  0.0 L                                                         1
 STAT SP IPHASW D HRMN SECON CODA AMPLIT PERI AZIMU VELO AIN AR TRES W  DIS CAZ7
 R5   B   P   0 D 0003  4.38                                                   4
 R4   B   P   0 D 0003  8.11                                                   4
 R2   B   P   0 D 0003  4.28                                                   4
 R9   B   P   0 U 0003  6.66                                                   4
 R7   B   P   0 U 0003  3.69                                                   4
 R6   B   P   0 D 0003  1.04                                                   4
 R13  B   P   0 U 0003 10.17                                                   4
 R14  B   P   0 U 0003  9.49                                                   4
 R12  B   P   0 U 0003  8.65                                                   4
 R15  B   P   0 U 0003  9.95                                                   4
 R16  B   P   0 U 0003 11.39                                                   4
 R8   B   P   0 U 0003  7.14                                                   4
 R3   B   P   0 D 0003  5.40                                                   4
 R10  B   P   0 U 0003  5.34                                                   4
 R1   B   P   0 D 0003  5.87                                                   4
 R11  B   P   0 U 0003  6.25                                                   4
 R7   B   S   0   0003  6.39                                                   4
 R3   B   S   0   0003  9.35                                                   4
 R16  B   S   0   0003 19.72                                                   4
 R11  B   S   0   0003 10.83                                                   4
 R13  B   S   0   0003 17.62                                                   4
 R12  B   S   0   0003 14.99                                                   4
 R2   B   S   0   0003  7.41                                                   4
 R10  B   S   0   0003  9.25                                                   4
 R4   B   S   0   0003 14.05                                                   4
 R15  B   S   0   0003 17.24                                                   4
 R5   B   S   0   0003  7.59                                                   4
 R9   B   S   0   0003 11.53                                                   4
 R14  B   S   0   0003 16.44                                                   4
 R6   B   S   0   0003  1.81                                                   4
 R1   B   S   0   0003 10.17                                                   4
 R8   B   S   0   0003 12.38                                                   4

 2016 0101 0003  0.0 L                                                         1
 STAT SP IPHASW D HRMN SECON CODA AMPLIT PERI AZIMU VELO AIN AR TRES W  DIS CAZ7
 R11  B   P   0 U 0003 26.86                                                   4
 R15  B   P   0 U 0003 29.93                                                   4
 R4   B   P   0 D 0003 27.60                                                   4
 R3   B   P   0 U 0003 25.26                                                   4
 R12  B   P   0 U 0003 28.70                                                   4
 R2   B   P   0 U 0003 24.20                                                   4
 R13  B   P   0 U 0003 29.99                                                   4
 R6   B   P   0 D 0003 23.40                                                   4
 R5   B   P   0 D 0003 24.80                                                   4
 R8   B   P   0 U 0003 27.21                                                   4
 R9   B   P   0 D 0003 26.96                                                   4
 R14  B   P   0 U 0003 29.51                                                   4
 R10  B   P   0 D 0003 26.13                                                   4
 R16  B   P   0 U 0003 31.13                                                   4
 R1   B   P   0 U 0003 25.40                                                   4
 R7   B   P   0 D 0003 24.64                                                   4
 R13  B   S   0   0003 37.30                                                   4
 R2   B   S   0   0003 27.27                                                   4
 R10  B   S   0   0003 30.61                                                   4
 R14  B   S   0   0003 36.46                                                   4
 R11  B   S   0   0003 31.87                                                   4
 R3   B   S   0   0003 29.11                                                   4
 R6   B   S   0   0003 25.88                                                   4
 R9   B   S   0   0003 32.05                                                   4
 R1   B   S   0   0003 29.35                                                   4
 R7   B   S   0   0003 28.03                                                   4
 R4   B   S   0   0003 33.16                                                   4
 R5   B   S   0   0003 28.30                                                   4
 R12  B   S   0   0003 35.07                                                   4
 R16  B   S   0   0003 39.27                                                   4
 R15  B   S   0   0003 37.19                                                   4
 R8   B   S   0   0003 32.48                                                   4

 2016 0101 0003  0.0 L                                                         1
 STAT SP IPHASW D HRMN SECON CODA AMPLIT PERI AZIMU VELO AIN AR TRES W  DIS CAZ7
 R5   B   P   0 U 0003 46.37                                                   4
 R7   B   P   0 U 0003 42.22                                                   4
 R16  B   P   0 U 0003 49.19                                                   4
 R10  B   P   0 D 0003 45.19                                                   4
 R15  B   P   0 U 0003 48.33                                                   4
 R1   B   P   0 U 0003 47.72                                                   4
 R2   B   P   0 U 0003 45.65                                                   4
 R9   B   P   0 D 0003 47.41                                                   4
 R14  B   P   0 U 0003 48.61                                                   4
 R11  B   P   0 D 0003 44.61                                                   4
 R6   B   P   0 U 0003 43.33                                                   4
 R4   B   P   0 D 0003 46.62                                                   4
 R8   B   P   0 D 0003 44.89                                                   4
 R12  B   P   0 U 0003 46.24                                                   4
 R3   B   P   0 U 0003 45.13                                                   4
 R13  B   P   0 U 0003 49.92                                                   4
 R15  B   S   0   0003 54.42                                                   4
 R14  B   S   0   0003 54.91                                                   4
 R4   B   S   0   0003 51.46                                                   4
 R1   B   S   0   0003 53.38                                                   4
 R12  B   S   0   0003 50.80                                                   4
 R7   B   S   0   0003 43.84                                                   4
 R9   B   S   0   0003 52.84                                                   4
 R16  B   S   0   0003 55.91                                                   4
 R5   B   S   0   0003 51.03                                                   4
 R3   B   S   0   0003 48.89                                                   4
 R11  B   S   0   0003 47.99                                                   4
 R8   B   S   0   0003 48.47                                                   4
 R6   B   S   0   0003 45.77                                                   4
 R2   B   S   0   0003 49.79                                                   4
 R13  B   S   0   0003 57.17                                                   4
 R10  B   S   0   0003 49.00                                                   4

 2016 0101 0004  0.0 L                                                         1
 STAT SP IPHASW D HRMN SECON CODA AMPLIT PERI AZIMU VELO AIN AR TRES W  DIS CAZ7
 R9   B   P   0 U 0004  7.59                                                   4
 R4   B   P   0 D 0004  6.90                                                   4
 R15  B   P   0 U 0004  9.38                                                   4
 R12  B   P   0 U 0004  7.28                                                   4
 R7   B   P   0 U 0004  1.96                                                   4
 R3   B   P   0 D 0004  4.77                                                   4
 R6   B   P   0 D 0004  2.40                                                   4
 R1   B   P   0 U 0004  7.23                                                   4
 R13  B   P   0 U 0004 10.62                                                   4
 R16  B   P   0 U 0004 10.44                                                   4
 R10  B   P   0 U 0004  5.48                                                   4
 R11  B   P   0 U 0004  5.33                                                   4
 R5   B   P   0 D 0004  5.94                                                   4
 R2   B   P   0 D 0004  4.93                                                   4
 R8   B   P   0 U 0004  5.52                                                   4
 R14  B   P   0 U 0004  9.45                                                   4
 R1   B   S   0   0004 12.53                                                   4
 R10  B   S   0   0004  9.49                                                   4
 R9   B   S   0   0004 13.15                                                   4
 R2   B   S   0   0004  8.55                                                   4
 R16  B   S   0   0004 18.07                                                   4
 R15  B   S   0   0004 16.24                                                   4
 R7   B   S   0   0004  3.39                                                   4
 R8   B   S   0   0004  9.57                                                   4
 R12  B   S   0   0004 12.61                                                   4
 R11  B   S   0   0004  9.23                                                   4
 R3   B   S   0   0004  8.26                                                   4
 R4   B   S   0   0004 11.96                                                   4
 R14  B   S   0   0004 16.37                                                   4
 R13  B   S   0   0004 18.40                                                   4
 R6   B   S   0   0004  4.15                                                   4
 R5   B   S   0   0004 10.29                                                   4

 2016 0101 0004  0.0 L                                                         1
 STAT SP IPHASW D HRMN SECON CODA AMPLIT PERI AZIMU VELO AIN AR TRES W  DIS CAZ7
 R7   B   P   0 D 0004 24.85                                                   4
 R12  B   P   0 U 0004 28.58                                                   4
 R1   B   P   0 U 0004 25.73                                                   4
 R9   B   P   0 D 0004 25.29                                                   4
 R15  B   P   0 U 0004 29.06                                                   4
 R8   B   P   0 D 0004 27.80                                                   4
 R13  B   P   0 U 0004 28.55                                                   4
 R3   B   P   0 D 0004 26.56                                                   4
 R11  B   P   0 U 0004 26.19                                                   4
 R14  B   P   0 U 0004 28.23                                                   4
 R10  B   P   0 D 0004 24.66                                                   4
 R6   B   P   0 U 0004 22.39                                                   4
 R5   B   P   0 U 0004 23.52                                                   4
 R16  B   P   0 U 0004 30.72                                                   4
 R4   B   P   0 D 0004 28.83                                                   4
 R2   B   P   0 U 0004 25.16                                                   4
 R13  B   S   0   0004 34.80                                                   4
 R16  B   S   0   0004 38.56                                                   4
 R8   B   S   0   0004 33.50                                                   4
 R12  B   S   0   0004 34.85                                                   4
 R15  B   S   0   0004 35.68                                                   4
 R3   B   S   0   0004 31.36                                                   4
 R10  B   S   0   0004 28.06                                                   4
 R5   B   S   0   0004 26.10                                                   4
 R9   B   S   0   0004 29.16                                                   4
 R6   B   S   0   0004 24.14                                                   4
 R4   B   S   0   0004 35.28                                                   4
 R7   B   S   0   0004 28.41                                                   4
 R14  B   S   0   0004 34.25                                                   4
 R11  B   S   0   0004 30.73                                                   4
 R1   B   S   0   0004 29.92                                                   4
 R2   B   S   0   0004 28.94                                                   4

 2016 0101 0004  0.0 L                                                         1
 STAT SP IPHASW D HRMN SECON CODA AMPLIT PERI AZIMU VELO AIN AR TRES W  DIS CAZ7
 R4   B   P   0 D 0004 48.22                                                   4
 R13  B   P   0 U 0004 48.64                                                   4
 R16  B   P   0 U 0004 48.54                                                   4
 R9   B   P   0 D 0004 46.22                                                   4
 R11  B   P   0 U 0004 43.43                                                   4
 R1   B   P   0 D 0004 48.33                                                   4
 R6   B   P   0 U 0004 43.19                                                   4
 R2   B   P   0 D 0004 46.80                                                   4
 R3   B   P   0 D 0004 46.76                                                   4
 R12  B   P   0 U 0004 46.08                                                   4
 R10  B   P   0 D 0004 43.53                                                   4
 R14  B   P   0 U 0004 47.20                                                   4
 R8   B   P   0 D 0004 45.91                                                   4
 R15  B   P   0 U 0004 47.17                                                   4
 R7   B   P   0 D 0004 43.08                                                   4
 R5   B   P   0 U 0004 46.07                                                   4
 R3   B   S   0   0004 51.71                                                   4
 R7   B   S   0   0004 45.33                                                   4
 R6   B   S   0   0004 45.52                                                   4
 R9   B   S   0   0004 50.78                                                   4
 R1   B   S   0   0004 54.42                                                   4
 R14  B   S   0   0004 52.48                                                   4
 R4   B   S   0   0004 54.24                                                   4
 R8   B   S   0   0004 50.24                                                   4
 R5   B   S   0   0004 50.51                                                   4
 R10  B   S   0   0004 46.11                                                   4
 R13  B   S   0   0004 54.96                                                   4
 R11  B   S   0   0004 45.94                                                   4
 R2   B   S   0   0004 51.78                                                   4
 R16  B   S   0   0004 54.79                                                   4
 R12  B   S   0   0004 50.52                                                   4
 R15  B   S   0   0004 52.41                                                   4

