 2016 0101 0007  0.0 L                                                         1
 STAT SP IPHASW D HRMN SECON CODA AMPLIT PERI AZIMU VELO AIN AR TRES W  DIS CAZ7
 R5   B   P   0 D 0007 26.29                                                   4
 R11  B   P   0 D 0007 25.42                                                   4
 R13  B   P   0 U 0007 24.47                                                   4
 R3   B   P   0 D 0007 30.98                                                   4
 R6   B   P   0 D 0007 26.01                                                   4
 R8   B   P   0 D 0007 30.17                                                   4
 R4   B   P   0 D 0007 32.63                                                   4
 R15  B   P   0 U 0007 26.31                                                   4
 R12  B   P   0 D 0007 28.81                                                   4
 R9   B   P   0 U 0007 22.87                                                   4
 R1   B   P   0 D 0007 30.20                                                   4
 R16  B   P   0 U 0007 29.31                                                   4
 R7   B   P   0 D 0007 27.68                                                   4
 R10  B   P   0 D 0007 22.01                                                   4
 R2   B   P   0 D 0007 30.06                                                   4
 R14  B   P   0 U 0007 24.04                                                   4
 R13  B   S   0   0007 27.75                                                   4
 R7   B   S   0   0007 33.30                                                   4
 R14  B   S   0   0007 27.00                                                   4
 R4   B   S   0   0007 41.87                                                   4
 R11  B   S   0   0007 29.39                                                   4
 R15  B   S   0   0007 30.93                                                   4
 R2   B   S   0   0007 37.42                                                   4
 R1   B   S   0   0007 37.67                                                   4
 R10  B   S   0   0007 23.48                                                   4
 R5   B   S   0   0007 30.90                                                   4
 R3   B   S   0   0007 39.02                                                   4
 R9   B   S   0   0007 24.97                                                   4
 R12  B   S   0   0007 35.26                                                   4
 R8   B   S   0   0007 37.62                                                   4
 R6   B   S   0   0007 30.42                                                   4
 R16  B   S   0   0007 36.13                                                   4

 2016 0101 0007  0.0 L                                                         1
 STAT SP IPHASW D HRMN SECON CODA AMPLIT PERI AZIMU VELO AIN AR TRES W  DIS CAZ7
 R2   B   P   0 U 0007 44.63                                                   4
 R7   B   P   0 U 0007 42.72                                                   4
 R10  B   P   0 D 0007 45.16                                                   4
 R13  B   P   0 U 0007 50.18                                                   4
 R3   B   P   0 D 0007 45.03                                                   4
 R5   B   P   0 D 0007 45.17                                                   4
 R12  B   P   0 U 0007 47.73                                                   4
 R6   B   P   0 D 0007 41.73                                                   4
 R11  B   P   0 U 0007 45.52                                                   4
 R4   B   P   0 D 0007 47.42                                                   4
 R1   B   P   0 U 0007 46.62                                                   4
 R15  B   P   0 U 0007 49.38                                                   4
 R14  B   P   0 U 0007 49.21                                                   4
 R16  B   P   0 U 0007 50.64                                                   4
 R9   B   P   0 D 0007 46.99                                                   4
 R8   B   P   0 U 0007 46.17                                                   4
 R6   B   S   0   0007 43.00                                                   4
 R9   B   S   0   0007 52.11                                                   4
 R7   B   S   0   0007 44.70                                                   4
 R12  B   S   0   0007 53.39                                                   4
 R4   B   S   0   0007 52.85                                                   4
 R15  B   S   0   0007 56.25                                                   4
 R13  B   S   0   0007 57.63                                                   4
 R3   B   S   0   0007 48.71                                                   4
 R16  B   S   0   0007 58.42                                                   4
 R5   B   S   0   0007 48.95                                                   4
 R14  B   S   0   0007 55.95                                                   4
 R10  B   S   0   0007 48.94                                                   4
 R2   B   S   0   0007 48.02                                                   4
 R1   B   S   0   0007 51.48                                                   4
 R8   B   S   0   0007 50.69                                                   4
 R11  B   S   0   0007 49.56                                                   4

 2016 0101 0008  0.0 L                                                         1
 STAT SP IPHASW D HRMN SECON CODA AMPLIT PERI AZIMU VELO AIN AR TRES W  DIS CAZ7
 R6   B   P   0 U 0008  5.02                                                   4
 R14  B   P   0 D 0008  5.12                                                   4
 R8   B   P   0 D 0008  8.83                                                   4
 R11  B   P   0 U 0008  5.17                                                   4
 R3   B   P   0 D 0008  9.31                                                   4
 R16  B   P   0 U 0008  8.87                                                   4
 R5   B   P   0 U 0008  5.43                                                   4
 R10  B   P   0 D 0008  2.97                                                   4
 R9   B   P   0 D 0008  3.62                                                   4
 R2   B   P   0 U 0008  8.43                                                   4
 R4   B   P   0 D 0008 10.98                                                   4
 R7   B   P   0 D 0008  6.50                                                   4
 R13  B   P   0 D 0008  5.51                                                   4
 R1   B   P   0 U 0008  8.65                                                   4
 R12  B   P   0 U 0008  7.98                                                   4
 R15  B   P   0 U 0008  6.57                                                   4
 R2   B   S   0   0008 14.59                                                   4
 R1   B   S   0   0008 14.98                                                   4
 R13  B   S   0   0008  9.55                                                   4
 R9   B   S   0   0008  6.28                                                   4
 R8   B   S   0   0008 15.30                                                   4
 R12  B   S   0   0008 13.81                                                   4
 R10  B   S   0   0008  5.14                                                   4
 R5   B   S   0   0008  9.40                                                   4
 R3   B   S   0   0008 16.11                                                   4
 R11  B   S   0   0008  8.95                                                   4
 R4   B   S   0   0008 19.01                                                   4
 R15  B   S   0   0008 11.37                                                   4
 R16  B   S   0   0008 15.36                                                   4
 R6   B   S   0   0008  8.70                                                   4
 R14  B   S   0   0008  8.87                                                   4
 R7   B   S   0   0008 11.26                                                   4

 2016 0101 0008  0.0 L                                                         1
 STAT SP IPHASW D HRMN SECON CODA AMPLIT PERI AZIMU VELO AIN AR TRES W  DIS CAZ7
 R12  B   P   0 U 0008 27.89                                                   4
 R15  B   P   0 U 0008 27.01                                                   4
 R6   B   P   0 U 0008 24.67                                                   4
 R10  B   P   0 D 0008 23.48                                                   4
 R7   B   P   0 D 0008 26.12                                                   4
 R8   B   P   0 D 0008 28.43                                                   4
 R9   B   P   0 D 0008 24.18                                                   4
 R2   B   P   0 D 0008 27.84                                                   4
 R16  B   P   0 U 0008 29.03                                                   4
 R14  B   P   0 D 0008 25.85                                                   4
 R3   B   P   0 D 0008 28.67                                                   4
 R4   B   P   0 D 0008 30.30                                                   4
 R11  B   P   0 U 0008 25.27                                                   4
 R1   B   P   0 U 0008 28.14                                                   4
 R13  B   P   0 D 0008 26.28                                                   4
 R5   B   P   0 U 0008 25.22                                                   4
 R11  B   S   0   0008 29.13                                                   4
 R12  B   S   0   0008 33.67                                                   4
 R1   B   S   0   0008 34.09                                                   4
 R16  B   S   0   0008 35.62                                                   4
 R3   B   S   0   0008 35.02                                                   4
 R8   B   S   0   0008 34.59                                                   4
 R10  B   S   0   0008 26.03                                                   4
 R15  B   S   0   0008 32.14                                                   4
 R9   B   S   0   0008 27.23                                                   4
 R13  B   S   0   0008 30.88                                                   4
 R5   B   S   0   0008 29.04                                                   4
 R6   B   S   0   0008 28.09                                                   4
 R4   B   S   0   0008 37.83                                                   4
 R14  B   S   0   0008 30.13                                                   4
 R7   B   S   0   0008 30.59                                                   4
 R2   B   S   0   0008 33.57                                                   4

 2016 0101 0008  0.0 L                                                         1
 STAT SP IPHASW D HRMN SECON CODA AMPLIT PERI AZIMU VELO AIN AR TRES W  DIS CAZ7
 R8   B   P   0 D 0008 46.94                                                   4
 R1   B   P   0 U 0008 50.12                                                   4
 R16  B   P   0 U 0008 46.49                                                   4
 R12  B   P   0 D 0008 45.49                                                   4
 R4   B   P   0 D 0008 49.61                                                   4
 R11  B   P   0 U 0008 43.73                                                   4
 R13  B   P   0 D 0008 47.30                                                   4
 R14  B   P   0 D 0008 45.48                                                   4
 R2   B   P   0 U 0008 49.03                                                   4
 R6   B   P   0 U 0008 46.01                                                   4
 R7   B   P   0 U 0008 45.68                                                   4
 R10  B   P   0 U 0008 44.23                                                   4
 R9   B   P   0 U 0008 46.46                                                   4
 R3   B   P   0 U 0008 48.83                                                   4
 R5   B   P   0 U 0008 47.69                                                   4
 R15  B   P   0 D 0008 45.11                                                   4
 R4   B   S   0   0008 56.63                                                   4
 R3   B   S   0   0008 55.29                                                   4
 R7   B   S   0   0008 49.83                                                   4
 R1   B   S   0   0008 57.52                                                   4
 R14  B   S   0   0008 49.49                                                   4
 R2   B   S   0   0008 55.62                                                   4
 R13  B   S   0   0008 52.64                                                   4
 R9   B   S   0   0008 51.19                                                   4
 R8   B   S   0   0008 52.01                                                   4
 R11  B   S   0   0008 46.46                                                   4
 R10  B   S   0   0008 47.32                                                   4
 R16  B   S   0   0008 51.24                                                   4
 R12  B   S   0   0008 49.50                                                   4
 R6   B   S   0   0008 50.41                                                   4
 R5   B   S   0   0008 53.31                                                   4
 R15  B   S   0   0008 48.85                                                   4

 2016 0101 0009  0.0 L                                                         1
 STAT SP IPHASW D HRMN SECON CODA AMPLIT PERI AZIMU VELO AIN AR TRES W  DIS CAZ7
 R13  B   P   0 D 0009 10.37                                                   4
 R15  B   P   0 U 0009 10.46                                                   4
 R11  B   P   0 U 0009  7.26                                                   4
 R14  B   P   0 D 0009  9.95                                                   4
 R10  B   P   0 D 0009  6.45                                                   4
 R1   B   P   0 U 0009  4.76                                                   4
 R5   B   P   0 D 0009  4.54                                                   4
 R12  B   P   0 U 0009  9.12                                                   4
 R3   B   P   0 D 0009  4.99                                                   4
 R9   B   P   0 D 0009  7.12                                                   4
 R16  B   P   0 U 0009 11.76                                                   4
 R2   B   P   0 U 0009  3.50                                                   4
 R6   B   P   0 D 0009  3.18                                                   4
 R7   B   P   0 U 0009  4.78                                                   4
 R4   B   P   0 D 0009  7.57                                                   4
 R8   B   P   0 U 0009  7.45                                                   4
 R8   B   S   0   0009 12.88                                                   4
 R6   B   S   0   0009  5.51                                                   4
 R9   B   S   0   0009 12.33                                                   4
 R4   B   S   0   0009 13.11                                                   4
 R11  B   S   0   0009 12.58                                                   4
 R13  B   S   0   0009 17.96                                                   4
 R14  B   S   0   0009 17.23                                                   4
 R7   B   S   0   0009  8.28                                                   4
 R15  B   S   0   0009 18.11                                                   4
 R16  B   S   0   0009 20.35                                                   4
 R12  B   S   0   0009 15.79                                                   4
 R3   B   S   0   0009  8.65                                                   4
 R5   B   S   0   0009  7.86                                                   4
 R2   B   S   0   0009  6.05                                                   4
 R1   B   S   0   0009  8.25                                                   4
 R10  B   S   0   0009 11.16                                                   4

 2016 0101 0009  0.0 L                                                         1
 STAT SP IPHASW D HRMN SECON CODA AMPLIT PERI AZIMU VELO AIN AR TRES W  DIS CAZ7
 R5   B   P   0 D 0009 23.27                                                   4
 R7   B   P   0 U 0009 24.97                                                   4
 R13  B   P   0 U 0009 28.95                                                   4
 R11  B   P   0 U 0009 26.59                                                   4
 R8   B   P   0 U 0009 28.02                                                   4
 R6   B   P   0 D 0009 22.29                                                   4
 R14  B   P   0 U 0009 28.71                                                   4
 R12  B   P   0 U 0009 28.97                                                   4
 R3   B   P   0 D 0009 26.39                                                   4
 R2   B   P   0 U 0009 24.75                                                   4
 R10  B   P   0 D 0009 25.05                                                   4
 R9   B   P   0 D 0009 25.52                                                   4
 R16  B   P   0 U 0009 31.19                                                   4
 R15  B   P   0 U 0009 29.55                                                   4
 R1   B   P   0 U 0009 25.26                                                   4
 R4   B   P   0 D 0009 28.85                                                   4
 R6   B   S   0   0009 23.96                                                   4
 R11  B   S   0   0009 31.41                                                   4
 R12  B   S   0   0009 35.53                                                   4
 R3   B   S   0   0009 31.06                                                   4
 R9   B   S   0   0009 29.56                                                   4
 R7   B   S   0   0009 28.61                                                   4
 R15  B   S   0   0009 36.53                                                   4
 R10  B   S   0   0009 28.74                                                   4
 R16  B   S   0   0009 39.36                                                   4
 R2   B   S   0   0009 28.23                                                   4
 R8   B   S   0   0009 33.89                                                   4
 R1   B   S   0   0009 29.11                                                   4
 R4   B   S   0   0009 35.33                                                   4
 R5   B   S   0   0009 25.67                                                   4
 R13  B   S   0   0009 35.49                                                   4
 R14  B   S   0   0009 35.08                                                   4

