 2016 0101 0012  0.0 L                                                         1
 STAT SP IPHASW D HRMN SECON CODA AMPLIT PERI AZIMU VELO AIN AR TRES W  DIS CAZ7
 R13  B   P   0 D 0012 10.50                                                   4
 R1   B   P   0 U 0012  5.88                                                   4
 R8   B   P   0 U 0012  6.74                                                   4
 R5   B   P   0 D 0012  5.66                                                   4
 R7   B   P   0 D 0012  4.57                                                   4
 R6   B   P   0 D 0012  4.05                                                   4
 R15  B   P   0 U 0012 10.04                                                   4
 R4   B   P   0 D 0012  6.92                                                   4
 R3   B   P   0 U 0012  4.84                                                   4
 R10  B   P   0 D 0012  6.63                                                   4
 R11  B   P   0 U 0012  6.95                                                   4
 R12  B   P   0 U 0012  8.44                                                   4
 R14  B   P   0 D 0012  9.84                                                   4
 R9   B   P   0 D 0012  7.67                                                   4
 R2   B   P   0 U 0012  4.35                                                   4
 R16  B   P   0 U 0012 11.03                                                   4
 R12  B   S   0   0012 14.60                                                   4
 R10  B   S   0   0012 11.49                                                   4
 R1   B   S   0   0012 10.19                                                   4
 R7   B   S   0   0012  7.91                                                   4
 R5   B   S   0   0012  9.79                                                   4
 R8   B   S   0   0012 11.66                                                   4
 R9   B   S   0   0012 13.27                                                   4
 R6   B   S   0   0012  7.01                                                   4
 R3   B   S   0   0012  8.39                                                   4
 R15  B   S   0   0012 17.37                                                   4
 R11  B   S   0   0012 12.04                                                   4
 R13  B   S   0   0012 18.17                                                   4
 R14  B   S   0   0012 17.03                                                   4
 R4   B   S   0   0012 11.98                                                   4
 R16  B   S   0   0012 19.10                                                   4
 R2   B   S   0   0012  7.54                                                   4

 2016 0101 0012  0.0 L                                                         1
 STAT SP IPHASW D HRMN SECON CODA AMPLIT PERI AZIMU VELO AIN AR TRES W  DIS CAZ7
 R10  B   P   0 D 0012 25.70                                                   4
 R14  B   P   0 D 0012 28.21                                                   4
 R16  B   P   0 U 0012 28.02                                                   4
 R1   B   P   0 U 0012 28.89                                                   4
 R5   B   P   0 U 0012 27.56                                                   4
 R3   B   P   0 U 0012 26.19                                                   4
 R4   B   P   0 D 0012 26.82                                                   4
 R12  B   P   0 D 0012 25.40                                                   4
 R9   B   P   0 D 0012 27.93                                                   4
 R13  B   P   0 D 0012 29.78                                                   4
 R11  B   P   0 D 0012 24.56                                                   4
 R6   B   P   0 U 0012 25.12                                                   4
 R15  B   P   0 D 0012 27.53                                                   4
 R7   B   P   0 U 0012 23.79                                                   4
 R8   B   P   0 U 0012 24.77                                                   4
 R2   B   P   0 U 0012 27.06                                                   4
 R15  B   S   0   0012 33.04                                                   4
 R8   B   S   0   0012 28.26                                                   4
 R4   B   S   0   0012 31.81                                                   4
 R2   B   S   0   0012 32.21                                                   4
 R10  B   S   0   0012 29.88                                                   4
 R9   B   S   0   0012 33.73                                                   4
 R1   B   S   0   0012 35.39                                                   4
 R3   B   S   0   0012 30.73                                                   4
 R5   B   S   0   0012 33.09                                                   4
 R13  B   S   0   0012 36.92                                                   4
 R7   B   S   0   0012 26.57                                                   4
 R14  B   S   0   0012 34.22                                                   4
 R12  B   S   0   0012 29.34                                                   4
 R11  B   S   0   0012 27.89                                                   4
 R6   B   S   0   0012 28.86                                                   4
 R16  B   S   0   0012 33.89                                                   4

 2016 0101 0012  0.0 L                                                         1
 STAT SP IPHASW D HRMN SECON CODA AMPLIT PERI AZIMU VELO AIN AR TRES W  DIS CAZ7
 R15  B   P   0 D 0012 45.74                                                   4
 R5   B   P   0 U 0012 47.05                                                   4
 R16  B   P   0 U 0012 47.08                                                   4
 R6   B   P   0 U 0012 45.08                                                   4
 R14  B   P   0 D 0012 46.02                                                   4
 R4   B   P   0 D 0012 48.93                                                   4
 R10  B   P   0 D 0012 43.85                                                   4
 R13  B   P   0 D 0012 47.72                                                   4
 R11  B   P   0 D 0012 43.38                                                   4
 R9   B   P   0 D 0012 46.28                                                   4
 R8   B   P   0 D 0012 46.33                                                   4
 R1   B   P   0 U 0012 49.41                                                   4
 R7   B   P   0 U 0012 44.72                                                   4
 R12  B   P   0 U 0012 45.42                                                   4
 R3   B   P   0 D 0012 47.98                                                   4
 R2   B   P   0 U 0012 48.17                                                   4
 R8   B   S   0   0012 50.95                                                   4
 R7   B   S   0   0012 48.18                                                   4
 R5   B   S   0   0012 52.21                                                   4
 R6   B   S   0   0012 48.79                                                   4
 R9   B   S   0   0012 50.87                                                   4
 R2   B   S   0   0012 54.15                                                   4
 R11  B   S   0   0012 45.86                                                   4
 R10  B   S   0   0012 46.67                                                   4
 R4   B   S   0   0012 55.46                                                   4
 R12  B   S   0   0012 49.39                                                   4
 R14  B   S   0   0012 50.43                                                   4
 R3   B   S   0   0012 53.82                                                   4
 R13  B   S   0   0012 53.36                                                   4
 R15  B   S   0   0012 49.94                                                   4
 R1   B   S   0   0012 56.29                                                   4
 R16  B   S   0   0012 52.25                                                   4

 2016 0101 0013  0.0 L                                                         1
 STAT SP IPHASW D HRMN SECON CODA AMPLIT PERI AZIMU VELO AIN AR TRES W  DIS CAZ7
 R7   B   P   0 U 0013  4.82                                                   4
 R9   B   P   0 D 0013  5.95                                                   4
 R3   B   P   0 D 0013  6.01                                                   4
 R11  B   P   0 U 0013  6.54                                                   4
 R15  B   P   0 U 0013  9.51                                                   4
 R5   B   P   0 D 0013  3.91                                                   4
 R14  B   P   0 D 0013  8.81                                                   4
 R10  B   P   0 D 0013  5.34                                                   4
 R6   B   P   0 D 0013  2.82                                                   4
 R1   B   P   0 U 0013  5.36                                                   4
 R4   B   P   0 D 0013  8.37                                                   4
 R16  B   P   0 U 0013 11.04                                                   4
 R12  B   P   0 U 0013  8.72                                                   4
 R2   B   P   0 U 0013  4.63                                                   4
 R8   B   P   0 U 0013  7.63                                                   4
 R13  B   P   0 D 0013  9.15                                                   4
 R7   B   S   0   0013  8.35                                                   4
 R11  B   S   0   0013 11.31                                                   4
 R2   B   S   0   0013  8.03                                                   4
 R3   B   S   0   0013 10.41                                                   4
 R1   B   S   0   0013  9.27                                                   4
 R14  B   S   0   0013 15.24                                                   4
 R9   B   S   0   0013 10.31                                                   4
 R13  B   S   0   0013 15.85                                                   4
 R8   B   S   0   0013 13.20                                                   4
 R12  B   S   0   0013 15.09                                                   4
 R16  B   S   0   0013 19.11                                                   4
 R4   B   S   0   0013 14.49                                                   4
 R6   B   S   0   0013  4.88                                                   4
 R5   B   S   0   0013  6.77                                                   4
 R10  B   S   0   0013  9.24                                                   4
 R15  B   S   0   0013 16.46                                                   4

 2016 0101 0013  0.0 L                                                         1
 STAT SP IPHASW D HRMN SECON CODA AMPLIT PERI AZIMU VELO AIN AR TRES W  DIS CAZ7
 R13  B   P   0 D 0013 27.42                                                   4
 R9   B   P   0 U 0013 26.91                                                   4
 R2   B   P   0 U 0013 29.73                                                   4
 R11  B   P   0 U 0013 23.04                                                   4
 R16  B   P   0 U 0013 25.53                                                   4
 R10  B   P   0 U 0013 24.25                                                   4
 R12  B   P   0 D 0013 24.75                                                   4
 R6   B   P   0 U 0013 26.53                                                   4
 R1   B   P   0 U 0013 30.99                                                   4
 R14  B   P   0 D 0013 25.13                                                   4
 R4   B   P   0 D 0013 29.92                                                   4
 R7   B   P   0 U 0013 25.86                                                   4
 R5   B   P   0 U 0013 28.40                                                   4
 R15  B   P   0 D 0013 24.18                                                   4
 R8   B   P   0 D 0013 26.83                                                   4
 R3   B   P   0 U 0013 29.33                                                   4
 R5   B   S   0   0013 34.54                                                   4
 R10  B   S   0   0013 27.37                                                   4
 R8   B   S   0   0013 31.83                                                   4
 R4   B   S   0   0013 37.18                                                   4
 R15  B   S   0   0013 27.24                                                   4
 R9   B   S   0   0013 31.96                                                   4
 R11  B   S   0   0013 25.27                                                   4
 R13  B   S   0   0013 32.85                                                   4
 R2   B   S   0   0013 36.85                                                   4
 R3   B   S   0   0013 36.15                                                   4
 R14  B   S   0   0013 28.88                                                   4
 R6   B   S   0   0013 31.30                                                   4
 R7   B   S   0   0013 30.14                                                   4
 R16  B   S   0   0013 29.57                                                   4
 R12  B   S   0   0013 28.22                                                   4
 R1   B   S   0   0013 39.03                                                   4

 2016 0101 0013  0.0 L                                                         1
 STAT SP IPHASW D HRMN SECON CODA AMPLIT PERI AZIMU VELO AIN AR TRES W  DIS CAZ7
 R14  B   P   0 D 0013 48.47                                                   4
 R16  B   P   0 U 0013 47.45                                                   4
 R13  B   P   0 D 0013 50.29                                                   4
 R6   B   P   0 U 0013 45.86                                                   4
 R2   B   P   0 U 0013 47.77                                                   4
 R3   B   P   0 U 0013 46.49                                                   4
 R15  B   P   0 D 0013 47.36                                                   4
 R11  B   P   0 D 0013 44.36                                                   4
 R5   B   P   0 U 0013 48.49                                                   4
 R10  B   P   0 D 0013 46.21                                                   4
 R1   B   P   0 U 0013 49.78                                                   4
 R7   B   P   0 U 0013 43.84                                                   4
 R9   B   P   0 D 0013 48.70                                                   4
 R8   B   P   0 U 0013 44.03                                                   4
 R12  B   P   0 D 0013 44.53                                                   4
 R4   B   P   0 U 0013 46.60                                                   4
 R10  B   S   0   0013 50.75                                                   4
 R3   B   S   0   0013 51.24                                                   4
 R5   B   S   0   0013 54.69                                                   4
 R7   B   S   0   0013 46.66                                                   4
 R16  B   S   0   0013 52.90                                                   4
 R15  B   S   0   0013 52.75                                                   4
 R4   B   S   0   0013 51.42                                                   4
 R6   B   S   0   0013 50.15                                                   4
 R14  B   S   0   0013 54.66                                                   4
 R12  B   S   0   0013 47.84                                                   4
 R2   B   S   0   0013 53.45                                                   4
 R1   B   S   0   0013 56.92                                                   4
 R11  B   S   0   0013 47.55                                                   4
 R9   B   S   0   0013 55.05                                                   4
 R13  B   S   0   0013 57.81                                                   4
 R8   B   S   0   0013 46.98                                                   4

 2016 0101 0014  0.0 L                                                         1
 STAT SP IPHASW D HRMN SECON CODA AMPLIT PERI AZIMU VELO AIN AR TRES W  DIS CAZ7
 R6   B   P   0 U 0014  4.82                                                   4
 R14  B   P   0 D 0014  6.26                                                   4
 R16  B   P   0 U 0014  7.64                                                   4
 R4   B   P   0 D 0014  8.86                                                   4
 R10  B   P   0 D 0014  3.98                                                   4
 R15  B   P   0 D 0014  6.26                                                   4
 R13  B   P   0 D 0014  7.64                                                   4
 R2   B   P   0 U 0014  7.76                                                   4
 R12  B   P   0 U 0014  6.01                                                   4
 R11  B   P   0 D 0014  3.98                                                   4
 R1   B   P   0 U 0014  8.86                                                   4
 R9   B   P   0 D 0014  6.01                                                   4
 R8   B   P   0 D 0014  6.59                                                   4
 R5   B   P   0 U 0014  6.59                                                   4
 R3   B   P   0 D 0014  7.76                                                   4
 R7   B   P   0 U 0014  4.82                                                   4
 R6   B   S   0   0014  8.34                                                   4
 R8   B   S   0   0014 11.41                                                   4
 R13  B   S   0   0014 13.23                                                   4
 R9   B   S   0   0014 10.41                                                   4
 R11  B   S   0   0014  6.89                                                   4
 R3   B   S   0   0014 13.43                                                   4
 R14  B   S   0   0014 10.84                                                   4
 R15  B   S   0   0014 10.84                                                   4
 R12  B   S   0   0014 10.41                                                   4
 R16  B   S   0   0014 13.23                                                   4
 R1   B   S   0   0014 15.33                                                   4
 R2   B   S   0   0014 13.43                                                   4
 R7   B   S   0   0014  8.34                                                   4
 R5   B   S   0   0014 11.41                                                   4
 R10  B   S   0   0014  6.89                                                   4
 R4   B   S   0   0014 15.33                                                   4

