 2016 0101 0016  0.0 L                                                         1
 STAT SP IPHASW D HRMN SECON CODA AMPLIT PERI AZIMU VELO AIN AR TRES W  DIS CAZ7
 R12  B   P   0 D 0016 44.16                                                   4
 R1   B   P   0 U 0016 50.06                                                   4
 R8   B   P   0 U 0016 44.22                                                   4
 R15  B   P   0 D 0016 46.83                                                   4
 R6   B   P   0 U 0016 45.93                                                   4
 R3   B   P   0 U 0016 46.93                                                   4
 R11  B   P   0 D 0016 43.91                                                   4
 R10  B   P   0 D 0016 45.88                                                   4
 R13  B   P   0 D 0016 49.98                                                   4
 R2   B   P   0 U 0016 48.13                                                   4
 R16  B   P   0 D 0016 46.97                                                   4
 R9   B   P   0 D 0016 48.52                                                   4
 R7   B   P   0 U 0016 43.97                                                   4
 R5   B   P   0 U 0016 48.55                                                   4
 R14  B   P   0 D 0016 48.04                                                   4
 R4   B   P   0 U 0016 47.07                                                   4
 R12  B   S   0   0016 47.21                                                   4
 R13  B   S   0   0016 57.28                                                   4
 R2   B   S   0   0016 54.07                                                   4
 R4   B   S   0   0016 52.24                                                   4
 R5   B   S   0   0016 54.81                                                   4
 R6   B   S   0   0016 50.26                                                   4
 R1   B   S   0   0016 57.42                                                   4
 R8   B   S   0   0016 47.31                                                   4
 R15  B   S   0   0016 51.83                                                   4
 R11  B   S   0   0016 46.78                                                   4
 R9   B   S   0   0016 54.75                                                   4
 R16  B   S   0   0016 52.07                                                   4
 R14  B   S   0   0016 53.91                                                   4
 R10  B   S   0   0016 50.18                                                   4
 R3   B   S   0   0016 52.00                                                   4
 R7   B   S   0   0016 46.88                                                   4

 2016 0101 0017  0.0 L                                                         1
 STAT SP IPHASW D HRMN SECON CODA AMPLIT PERI AZIMU VELO AIN AR TRES W  DIS CAZ7
 R10  B   P   0 D 0017  3.60                                                   4
 R4   B   P   0 D 0017  8.21                                                   4
 R1   B   P   0 D 0017  8.53                                                   4
 R5   B   P   0 U 0017  6.35                                                   4
 R11  B   P   0 D 0017  3.27                                                   4
 R9   B   P   0 D 0017  6.21                                                   4
 R3   B   P   0 D 0017  7.00                                                   4
 R14  B   P   0 U 0017  6.79                                                   4
 R16  B   P   0 U 0017  7.92                                                   4
 R2   B   P   0 D 0017  7.13                                                   4
 R7   B   P   0 U 0017  3.55                                                   4
 R15  B   P   0 U 0017  6.65                                                   4
 R6   B   P   0 U 0017  3.85                                                   4
 R13  B   P   0 U 0017  8.25                                                   4
 R12  B   P   0 U 0017  5.70                                                   4
 R8   B   P   0 D 0017  5.85                                                   4
 R3   B   S   0   0017 12.12                                                   4
 R11  B   S   0   0017  5.66                                                   4
 R5   B   S   0   0017 10.99                                                   4
 R8   B   S   0   0017 10.13                                                   4
 R6   B   S   0   0017  6.67                                                   4
 R7   B   S   0   0017  6.15                                                   4
 R13  B   S   0   0017 14.28                                                   4
 R9   B   S   0   0017 10.75                                                   4
 R1   B   S   0   0017 14.77                                                   4
 R16  B   S   0   0017 13.71                                                   4
 R2   B   S   0   0017 12.35                                                   4
 R14  B   S   0   0017 11.76                                                   4
 R12  B   S   0   0017  9.86                                                   4
 R10  B   S   0   0017  6.23                                                   4
 R4   B   S   0   0017 14.21                                                   4
 R15  B   S   0   0017 11.52                                                   4

 2016 0101 0017  0.0 L                                                         1
 STAT SP IPHASW D HRMN SECON CODA AMPLIT PERI AZIMU VELO AIN AR TRES W  DIS CAZ7
 R10  B   P   0 U 0017 26.46                                                   4
 R8   B   P   0 U 0017 28.34                                                   4
 R4   B   P   0 D 0017 28.50                                                   4
 R3   B   P   0 D 0017 25.68                                                   4
 R5   B   P   0 D 0017 23.61                                                   4
 R16  B   P   0 U 0017 32.31                                                   4
 R14  B   P   0 U 0017 30.06                                                   4
 R9   B   P   0 D 0017 26.74                                                   4
 R11  B   P   0 U 0017 27.75                                                   4
 R13  B   P   0 U 0017 30.21                                                   4
 R2   B   P   0 U 0017 23.47                                                   4
 R7   B   P   0 U 0017 25.41                                                   4
 R12  B   P   0 U 0017 29.84                                                   4
 R6   B   P   0 D 0017 22.95                                                   4
 R15  B   P   0 U 0017 30.82                                                   4
 R1   B   P   0 U 0017 24.03                                                   4
 R4   B   S   0   0017 34.72                                                   4
 R12  B   S   0   0017 37.03                                                   4
 R1   B   S   0   0017 26.98                                                   4
 R11  B   S   0   0017 33.42                                                   4
 R14  B   S   0   0017 37.41                                                   4
 R10  B   S   0   0017 31.19                                                   4
 R13  B   S   0   0017 37.68                                                   4
 R3   B   S   0   0017 29.83                                                   4
 R8   B   S   0   0017 34.44                                                   4
 R7   B   S   0   0017 29.36                                                   4
 R2   B   S   0   0017 26.02                                                   4
 R6   B   S   0   0017 25.12                                                   4
 R9   B   S   0   0017 31.67                                                   4
 R5   B   S   0   0017 26.24                                                   4
 R15  B   S   0   0017 38.73                                                   4
 R16  B   S   0   0017 41.31                                                   4

 2016 0101 0017  0.0 L                                                         1
 STAT SP IPHASW D HRMN SECON CODA AMPLIT PERI AZIMU VELO AIN AR TRES W  DIS CAZ7
 R10  B   P   0 D 0017 45.50                                                   4
 R6   B   P   0 D 0017 42.36                                                   4
 R5   B   P   0 D 0017 44.88                                                   4
 R4   B   P   0 D 0017 47.29                                                   4
 R13  B   P   0 U 0017 49.88                                                   4
 R2   B   P   0 U 0017 44.26                                                   4
 R14  B   P   0 U 0017 49.14                                                   4
 R8   B   P   0 U 0017 46.49                                                   4
 R9   B   P   0 D 0017 46.84                                                   4
 R7   B   P   0 U 0017 43.51                                                   4
 R3   B   P   0 D 0017 44.95                                                   4
 R12  B   P   0 U 0017 47.98                                                   4
 R16  B   P   0 U 0017 50.62                                                   4
 R11  B   P   0 U 0017 46.03                                                   4
 R1   B   P   0 U 0017 45.95                                                   4
 R15  B   P   0 U 0017 49.41                                                   4
 R6   B   S   0   0017 44.08                                                   4
 R4   B   S   0   0017 52.62                                                   4
 R9   B   S   0   0017 51.85                                                   4
 R16  B   S   0   0017 58.39                                                   4
 R13  B   S   0   0017 57.11                                                   4
 R1   B   S   0   0017 50.31                                                   4
 R14  B   S   0   0017 55.82                                                   4
 R3   B   S   0   0017 48.57                                                   4
 R10  B   S   0   0017 49.53                                                   4
 R8   B   S   0   0017 51.24                                                   4
 R7   B   S   0   0017 46.07                                                   4
 R11  B   S   0   0017 50.44                                                   4
 R2   B   S   0   0017 47.37                                                   4
 R5   B   S   0   0017 48.45                                                   4
 R15  B   S   0   0017 56.30                                                   4
 R12  B   S   0   0017 53.82                                                   4

 2016 0101 0018  0.0 L                                                         1
 STAT SP IPHASW D HRMN SECON CODA AMPLIT PERI AZIMU VELO AIN AR TRES W  DIS CAZ7
 R14  B   P   0 U 0018  8.25                                                   4
 R8   B   P   0 D 0018  3.77                                                   4
 R3   B   P   0 D 0018  6.47                                                   4
 R6   B   P   0 U 0018  4.99                                                   4
 R15  B   P   0 U 0018  7.24                                                   4
 R4   B   P   0 D 0018  6.99                                                   4
 R1   B   P   0 D 0018  9.78                                                   4
 R12  B   P   0 U 0018  4.27                                                   4
 R10  B   P   0 D 0018  5.37                                                   4
 R7   B   P   0 U 0018  2.40                                                   4
 R11  B   P   0 D 0018  3.17                                                   4
 R13  B   P   0 U 0018 10.25                                                   4
 R5   B   P   0 U 0018  8.10                                                   4
 R2   B   P   0 D 0018  7.62                                                   4
 R9   B   P   0 D 0018  8.30                                                   4
 R16  B   P   0 U 0018  7.69                                                   4
 R2   B   S   0   0018 13.20                                                   4
 R1   B   S   0   0018 16.94                                                   4
 R8   B   S   0   0018  6.52                                                   4
 R3   B   S   0   0018 11.21                                                   4
 R7   B   S   0   0018  4.15                                                   4
 R9   B   S   0   0018 14.37                                                   4
 R14  B   S   0   0018 14.29                                                   4
 R10  B   S   0   0018  9.30                                                   4
 R13  B   S   0   0018 17.75                                                   4
 R15  B   S   0   0018 12.54                                                   4
 R5   B   S   0   0018 14.03                                                   4
 R11  B   S   0   0018  5.50                                                   4
 R4   B   S   0   0018 12.11                                                   4
 R16  B   S   0   0018 13.32                                                   4
 R6   B   S   0   0018  8.64                                                   4
 R12  B   S   0   0018  7.40                                                   4

 2016 0101 0018  0.0 L                                                         1
 STAT SP IPHASW D HRMN SECON CODA AMPLIT PERI AZIMU VELO AIN AR TRES W  DIS CAZ7
 R9   B   P   0 D 0018 25.03                                                   4
 R16  B   P   0 U 0018 27.60                                                   4
 R7   B   P   0 D 0018 25.03                                                   4
 R4   B   P   0 D 0018 29.86                                                   4
 R13  B   P   0 D 0018 26.75                                                   4
 R2   B   P   0 D 0018 28.31                                                   4
 R5   B   P   0 U 0018 26.31                                                   4
 R11  B   P   0 U 0018 23.11                                                   4
 R10  B   P   0 D 0018 22.16                                                   4
 R15  B   P   0 U 0018 25.59                                                   4
 R1   B   P   0 D 0018 29.28                                                   4
 R6   B   P   0 U 0018 24.57                                                   4
 R8   B   P   0 D 0018 27.23                                                   4
 R12  B   P   0 U 0018 26.17                                                   4
 R14  B   P   0 D 0018 25.20                                                   4
 R3   B   P   0 D 0018 28.55                                                   4
 R13  B   S   0   0018 31.68                                                   4
 R8   B   S   0   0018 32.51                                                   4
 R7   B   S   0   0018 28.71                                                   4
 R11  B   S   0   0018 25.38                                                   4
 R6   B   S   0   0018 27.91                                                   4
 R4   B   S   0   0018 37.08                                                   4
 R2   B   S   0   0018 34.40                                                   4
 R10  B   S   0   0018 23.74                                                   4
 R1   B   S   0   0018 36.07                                                   4
 R9   B   S   0   0018 28.71                                                   4
 R15  B   S   0   0018 29.68                                                   4
 R12  B   S   0   0018 30.68                                                   4
 R5   B   S   0   0018 30.93                                                   4
 R3   B   S   0   0018 34.80                                                   4
 R16  B   S   0   0018 33.16                                                   4
 R14  B   S   0   0018 29.00                                                   4

 2016 0101 0018  0.0 L                                                         1
 STAT SP IPHASW D HRMN SECON CODA AMPLIT PERI AZIMU VELO AIN AR TRES W  DIS CAZ7
 R14  B   P   0 U 0018 44.82                                                   4
 R5   B   P   0 U 0018 45.33                                                   4
 R9   B   P   0 U 0018 42.77                                                   4
 R4   B   P   0 D 0018 51.60                                                   4
 R3   B   P   0 D 0018 49.87                                                   4
 R8   B   P   0 D 0018 49.45                                                   4
 R11  B   P   0 D 0018 45.43                                                   4
 R6   B   P   0 D 0018 45.21                                                   4
 R12  B   P   0 D 0018 48.50                                                   4
 R13  B   P   0 D 0018 44.95                                                   4
 R2   B   P   0 D 0018 48.87                                                   4
 R7   B   P   0 D 0018 46.97                                                   4
 R1   B   P   0 D 0018 48.93                                                   4
 R16  B   P   0 U 0018 49.26                                                   4
 R10  B   P   0 U 0018 42.49                                                   4
 R15  B   P   0 U 0018 46.69                                                   4
 R12  B   S   0   0018 54.72                                                   4
 R11  B   S   0   0018 49.41                                                   4
 R6   B   S   0   0018 49.02                                                   4
 R9   B   S   0   0018 44.79                                                   4
 R4   B   S   0   0019  0.09                                                   4
 R16  B   S   0   0018 56.03                                                   4
 R10  B   S   0   0018 44.32                                                   4
 R8   B   S   0   0018 56.36                                                   4
 R15  B   S   0   0018 51.59                                                   4
 R7   B   S   0   0018 52.08                                                   4
 R13  B   S   0   0018 48.57                                                   4
 R2   B   S   0   0018 55.36                                                   4
 R3   B   S   0   0018 57.08                                                   4
 R14  B   S   0   0018 48.34                                                   4
 R5   B   S   0   0018 49.23                                                   4
 R1   B   S   0   0018 55.47                                                   4

