 2016 0101 0005  0.0 L                                                         1
 STAT SP IPHASW D HRMN SECON CODA AMPLIT PERI AZIMU VELO AIN AR TRES W  DIS CAZ7
 R8   B   P   0 D 0005  8.23                                                   4
 R13  B   P   0 D 0005  7.14                                                   4
 R16  B   P   0 U 0005  9.74                                                   4
 R1   B   P   0 D 0005  7.90                                                   4
 R3   B   P   0 D 0005  8.28                                                   4
 R14  B   P   0 U 0005  6.44                                                   4
 R11  B   P   0 U 0005  4.72                                                   4
 R10  B   P   0 D 0005  2.23                                                   4
 R2   B   P   0 D 0005  7.29                                                   4
 R7   B   P   0 D 0005  5.13                                                   4
 R9   B   P   0 D 0005  3.92                                                   4
 R12  B   P   0 U 0005  8.00                                                   4
 R4   B   P   0 D 0005 10.26                                                   4
 R5   B   P   0 U 0005  4.41                                                   4
 R15  B   P   0 U 0005  7.58                                                   4
 R6   B   P   0 D 0005  3.06                                                   4
 R7   B   S   0   0005  8.90                                                   4
 R3   B   S   0   0005 14.35                                                   4
 R14  B   S   0   0005 11.16                                                   4
 R10  B   S   0   0005  3.86                                                   4
 R15  B   S   0   0005 13.13                                                   4
 R9   B   S   0   0005  6.79                                                   4
 R1   B   S   0   0005 13.68                                                   4
 R12  B   S   0   0005 13.86                                                   4
 R16  B   S   0   0005 16.87                                                   4
 R11  B   S   0   0005  8.18                                                   4
 R13  B   S   0   0005 12.37                                                   4
 R8   B   S   0   0005 14.26                                                   4
 R6   B   S   0   0005  5.29                                                   4
 R2   B   S   0   0005 12.63                                                   4
 R4   B   S   0   0005 17.76                                                   4
 R5   B   S   0   0005  7.64                                                   4

 2016 0101 0005  0.0 L                                                         1
 STAT SP IPHASW D HRMN SECON CODA AMPLIT PERI AZIMU VELO AIN AR TRES W  DIS CAZ7
 R13  B   P   0 U 0005 28.56                                                   4
 R16  B   P   0 U 0005 25.34                                                   4
 R6   B   P   0 D 0005 26.90                                                   4
 R8   B   P   0 D 0005 26.63                                                   4
 R3   B   P   0 D 0005 29.85                                                   4
 R9   B   P   0 D 0005 27.83                                                   4
 R15  B   P   0 U 0005 24.03                                                   4
 R1   B   P   0 D 0005 32.01                                                   4
 R12  B   P   0 D 0005 23.87                                                   4
 R7   B   P   0 D 0005 25.70                                                   4
 R2   B   P   0 D 0005 30.48                                                   4
 R4   B   P   0 D 0005 30.33                                                   4
 R14  B   P   0 U 0005 25.68                                                   4
 R11  B   P   0 U 0005 21.13                                                   4
 R10  B   P   0 U 0005 24.38                                                   4
 R5   B   P   0 D 0005 29.35                                                   4
 R1   B   S   0   0005 40.79                                                   4
 R6   B   S   0   0005 31.96                                                   4
 R2   B   S   0   0005 38.16                                                   4
 R9   B   S   0   0005 33.56                                                   4
 R4   B   S   0   0005 37.89                                                   4
 R13  B   S   0   0005 34.82                                                   4
 R11  B   S   0   0005 21.96                                                   4
 R8   B   S   0   0005 31.48                                                   4
 R7   B   S   0   0005 29.87                                                   4
 R12  B   S   0   0005 26.71                                                   4
 R5   B   S   0   0005 36.19                                                   4
 R16  B   S   0   0005 29.24                                                   4
 R14  B   S   0   0005 29.84                                                   4
 R3   B   S   0   0005 37.06                                                   4
 R10  B   S   0   0005 27.59                                                   4
 R15  B   S   0   0005 26.98                                                   4

 2016 0101 0005  0.0 L                                                         1
 STAT SP IPHASW D HRMN SECON CODA AMPLIT PERI AZIMU VELO AIN AR TRES W  DIS CAZ7
 R13  B   P   0 D 0005 48.32                                                   4
 R14  B   P   0 D 0005 45.20                                                   4
 R6   B   P   0 D 0005 47.96                                                   4
 R3   B   P   0 D 0005 50.67                                                   4
 R10  B   P   0 U 0005 45.11                                                   4
 R11  B   P   0 U 0005 42.63                                                   4
 R5   B   P   0 D 0005 50.08                                                   4
 R9   B   P   0 U 0005 48.28                                                   4
 R15  B   P   0 D 0005 42.83                                                   4
 R12  B   P   0 D 0005 43.87                                                   4
 R4   B   P   0 D 0005 50.95                                                   4
 R2   B   P   0 D 0005 51.34                                                   4
 R8   B   P   0 D 0005 47.31                                                   4
 R7   B   P   0 D 0005 46.79                                                   4
 R1   B   P   0 D 0005 52.74                                                   4
 R16  B   P   0 U 0005 44.00                                                   4
 R2   B   S   0   0005 59.63                                                   4
 R5   B   S   0   0005 57.45                                                   4
 R14  B   S   0   0005 49.02                                                   4
 R12  B   S   0   0005 46.70                                                   4
 R16  B   S   0   0005 46.92                                                   4
 R8   B   S   0   0005 52.66                                                   4
 R6   B   S   0   0005 53.79                                                   4
 R13  B   S   0   0005 54.42                                                   4
 R10  B   S   0   0005 48.86                                                   4
 R9   B   S   0   0005 54.34                                                   4
 R3   B   S   0   0005 58.48                                                   4
 R1   B   S   0   0006  2.05                                                   4
 R4   B   S   0   0005 58.97                                                   4
 R7   B   S   0   0005 51.77                                                   4
 R11  B   S   0   0005 44.55                                                   4
 R15  B   S   0   0005 44.90                                                   4

 2016 0101 0006  0.0 L                                                         1
 STAT SP IPHASW D HRMN SECON CODA AMPLIT PERI AZIMU VELO AIN AR TRES W  DIS CAZ7
 R16  B   P   0 U 0006 11.03                                                   4
 R10  B   P   0 D 0006  6.50                                                   4
 R2   B   P   0 U 0006  3.72                                                   4
 R4   B   P   0 D 0006  6.17                                                   4
 R3   B   P   0 D 0006  3.75                                                   4
 R11  B   P   0 U 0006  6.52                                                   4
 R5   B   P   0 D 0006  5.82                                                   4
 R1   B   P   0 U 0006  6.12                                                   4
 R6   B   P   0 D 0006  3.14                                                   4
 R15  B   P   0 U 0006 10.11                                                   4
 R7   B   P   0 U 0006  3.19                                                   4
 R13  B   P   0 U 0006 11.00                                                   4
 R8   B   P   0 U 0006  5.88                                                   4
 R12  B   P   0 U 0006  8.05                                                   4
 R14  B   P   0 U 0006 10.11                                                   4
 R9   B   P   0 D 0006  8.01                                                   4
 R8   B   S   0   0006 10.19                                                   4
 R2   B   S   0   0006  6.44                                                   4
 R6   B   S   0   0006  5.45                                                   4
 R14  B   S   0   0006 17.49                                                   4
 R3   B   S   0   0006  6.50                                                   4
 R10  B   S   0   0006 11.26                                                   4
 R4   B   S   0   0006 10.69                                                   4
 R15  B   S   0   0006 17.51                                                   4
 R13  B   S   0   0006 19.05                                                   4
 R7   B   S   0   0006  5.52                                                   4
 R16  B   S   0   0006 19.09                                                   4
 R12  B   S   0   0006 13.93                                                   4
 R5   B   S   0   0006 10.08                                                   4
 R1   B   S   0   0006 10.59                                                   4
 R9   B   S   0   0006 13.86                                                   4
 R11  B   S   0   0006 11.29                                                   4

 2016 0101 0006  0.0 L                                                         1
 STAT SP IPHASW D HRMN SECON CODA AMPLIT PERI AZIMU VELO AIN AR TRES W  DIS CAZ7
 R16  B   P   0 U 0006 28.89                                                   4
 R5   B   P   0 D 0006 27.65                                                   4
 R10  B   P   0 D 0006 26.37                                                   4
 R1   B   P   0 U 0006 28.52                                                   4
 R14  B   P   0 D 0006 29.30                                                   4
 R11  B   P   0 D 0006 25.07                                                   4
 R13  B   P   0 D 0006 30.88                                                   4
 R9   B   P   0 D 0006 28.62                                                   4
 R7   B   P   0 D 0006 22.65                                                   4
 R12  B   P   0 U 0006 25.69                                                   4
 R15  B   P   0 D 0006 28.55                                                   4
 R6   B   P   0 D 0006 24.81                                                   4
 R3   B   P   0 U 0006 24.83                                                   4
 R4   B   P   0 D 0006 25.49                                                   4
 R8   B   P   0 U 0006 23.76                                                   4
 R2   B   P   0 U 0006 26.20                                                   4
 R15  B   S   0   0006 34.80                                                   4
 R10  B   S   0   0006 31.02                                                   4
 R4   B   S   0   0006 29.50                                                   4
 R8   B   S   0   0006 26.51                                                   4
 R16  B   S   0   0006 35.39                                                   4
 R14  B   S   0   0006 36.10                                                   4
 R9   B   S   0   0006 34.93                                                   4
 R13  B   S   0   0006 38.84                                                   4
 R11  B   S   0   0006 28.78                                                   4
 R12  B   S   0   0006 29.85                                                   4
 R7   B   S   0   0006 24.59                                                   4
 R3   B   S   0   0006 28.36                                                   4
 R2   B   S   0   0006 30.73                                                   4
 R6   B   S   0   0006 28.33                                                   4
 R1   B   S   0   0006 34.75                                                   4
 R5   B   S   0   0006 33.25                                                   4

 2016 0101 0006  0.0 L                                                         1
 STAT SP IPHASW D HRMN SECON CODA AMPLIT PERI AZIMU VELO AIN AR TRES W  DIS CAZ7
 R13  B   P   0 U 0006 46.26                                                   4
 R2   B   P   0 D 0006 48.30                                                   4
 R9   B   P   0 D 0006 42.92                                                   4
 R11  B   P   0 U 0006 45.32                                                   4
 R14  B   P   0 U 0006 45.91                                                   4
 R1   B   P   0 D 0006 48.54                                                   4
 R16  B   P   0 U 0006 50.06                                                   4
 R7   B   P   0 D 0006 46.32                                                   4
 R15  B   P   0 U 0006 47.55                                                   4
 R3   B   P   0 D 0006 49.44                                                   4
 R5   B   P   0 D 0006 44.64                                                   4
 R10  B   P   0 U 0006 41.84                                                   4
 R6   B   P   0 D 0006 44.12                                                   4
 R4   B   P   0 D 0006 51.42                                                   4
 R8   B   P   0 D 0006 49.31                                                   4
 R12  B   P   0 U 0006 48.73                                                   4
 R7   B   S   0   0006 50.95                                                   4
 R5   B   S   0   0006 48.04                                                   4
 R13  B   S   0   0006 50.84                                                   4
 R6   B   S   0   0006 47.13                                                   4
 R11  B   S   0   0006 49.22                                                   4
 R9   B   S   0   0006 45.06                                                   4
 R16  B   S   0   0006 57.42                                                   4
 R2   B   S   0   0006 54.37                                                   4
 R14  B   S   0   0006 50.24                                                   4
 R10  B   S   0   0006 43.18                                                   4
 R3   B   S   0   0006 56.35                                                   4
 R8   B   S   0   0006 56.12                                                   4
 R12  B   S   0   0006 55.13                                                   4
 R1   B   S   0   0006 54.79                                                   4
 R15  B   S   0   0006 53.07                                                   4
 R4   B   S   0   0006 59.77                                                   4

 2016 0101 0007  0.0 L                                                         1
 STAT SP IPHASW D HRMN SECON CODA AMPLIT PERI AZIMU VELO AIN AR TRES W  DIS CAZ7
 R12  B   P   0 U 0007  7.34                                                   4
 R9   B   P   0 D 0007  7.38                                                   4
 R7   B   P   0 D 0007  3.32                                                   4
 R5   B   P   0 D 0007  5.79                                                   4
 R3   B   P   0 U 0007  4.69                                                   4
 R6   B   P   0 D 0007  3.35                                                   4
 R11  B   P   0 D 0007  5.79                                                   4
 R1   B   P   0 U 0007  6.62                                                   4
 R4   B   P   0 D 0007  6.57                                                   4
 R2   B   P   0 U 0007  4.72                                                   4
 R16  B   P   0 U 0007 10.14                                                   4
 R10  B   P   0 D 0007  5.81                                                   4
 R14  B   P   0 D 0007  9.18                                                   4
 R13  B   P   0 D 0007 10.17                                                   4
 R15  B   P   0 D 0007  9.17                                                   4
 R8   B   P   0 U 0007  5.73                                                   4
 R13  B   S   0   0007 17.60                                                   4
 R5   B   S   0   0007 10.02                                                   4
 R1   B   S   0   0007 11.46                                                   4
 R9   B   S   0   0007 12.77                                                   4
 R6   B   S   0   0007  5.80                                                   4
 R3   B   S   0   0007  8.13                                                   4
 R11  B   S   0   0007 10.02                                                   4
 R8   B   S   0   0007  9.93                                                   4
 R12  B   S   0   0007 12.70                                                   4
 R16  B   S   0   0007 17.55                                                   4
 R14  B   S   0   0007 15.89                                                   4
 R4   B   S   0   0007 11.38                                                   4
 R15  B   S   0   0007 15.87                                                   4
 R10  B   S   0   0007 10.05                                                   4
 R2   B   S   0   0007  8.17                                                   4
 R7   B   S   0   0007  5.74                                                   4

