 2016 0101 0009  0.0 L                                                         1
 STAT SP IPHASW D HRMN SECON CODA AMPLIT PERI AZIMU VELO AIN AR TRES W  DIS CAZ7
 R16  B   P   0 U 0009 49.06                                                   4
 R10  B   P   0 D 0009 40.79                                                   4
 R8   B   P   0 D 0009 48.71                                                   4
 R9   B   P   0 D 0009 43.83                                                   4
 R12  B   P   0 U 0009 47.74                                                   4
 R3   B   P   0 D 0009 49.46                                                   4
 R1   B   P   0 D 0009 49.31                                                   4
 R4   B   P   0 D 0009 51.16                                                   4
 R7   B   P   0 D 0009 45.94                                                   4
 R13  B   P   0 U 0009 46.27                                                   4
 R11  B   P   0 U 0009 44.26                                                   4
 R14  B   P   0 U 0009 45.25                                                   4
 R15  B   P   0 U 0009 46.51                                                   4
 R5   B   P   0 D 0009 45.66                                                   4
 R2   B   P   0 D 0009 48.73                                                   4
 R6   B   P   0 D 0009 44.47                                                   4
 R16  B   S   0   0009 55.69                                                   4
 R11  B   S   0   0009 47.38                                                   4
 R10  B   S   0   0009 41.37                                                   4
 R14  B   S   0   0009 49.09                                                   4
 R7   B   S   0   0009 50.29                                                   4
 R3   B   S   0   0009 56.38                                                   4
 R12  B   S   0   0009 53.40                                                   4
 R1   B   S   0   0009 56.12                                                   4
 R13  B   S   0   0009 50.86                                                   4
 R6   B   S   0   0009 47.74                                                   4
 R2   B   S   0   0009 55.12                                                   4
 R8   B   S   0   0009 55.08                                                   4
 R5   B   S   0   0009 49.81                                                   4
 R9   B   S   0   0009 46.63                                                   4
 R4   B   S   0   0009 59.32                                                   4
 R15  B   S   0   0009 51.29                                                   4

 2016 0101 0010  0.0 L                                                         1
 STAT SP IPHASW D HRMN SECON CODA AMPLIT PERI AZIMU VELO AIN AR TRES W  DIS CAZ7
 R5   B   P   0 D 0010  4.96                                                   4
 R7   B   P   0 U 0010  3.89                                                   4
 R13  B   P   0 U 0010 10.25                                                   4
 R3   B   P   0 D 0010  4.64                                                   4
 R16  B   P   0 U 0010 11.05                                                   4
 R2   B   P   0 U 0010  3.77                                                   4
 R14  B   P   0 U 0010  9.58                                                   4
 R8   B   P   0 U 0010  6.66                                                   4
 R6   B   P   0 D 0010  2.78                                                   4
 R10  B   P   0 D 0010  6.07                                                   4
 R11  B   P   0 U 0010  6.57                                                   4
 R15  B   P   0 U 0010  9.88                                                   4
 R4   B   P   0 D 0010  7.06                                                   4
 R12  B   P   0 U 0010  8.33                                                   4
 R1   B   P   0 U 0010  5.54                                                   4
 R9   B   P   0 D 0010  7.17                                                   4
 R16  B   S   0   0010 19.12                                                   4
 R2   B   S   0   0010  6.53                                                   4
 R7   B   S   0   0010  6.73                                                   4
 R9   B   S   0   0010 12.42                                                   4
 R12  B   S   0   0010 14.42                                                   4
 R8   B   S   0   0010 11.53                                                   4
 R1   B   S   0   0010  9.59                                                   4
 R5   B   S   0   0010  8.60                                                   4
 R10  B   S   0   0010 10.51                                                   4
 R15  B   S   0   0010 17.10                                                   4
 R13  B   S   0   0010 17.75                                                   4
 R4   B   S   0   0010 12.23                                                   4
 R11  B   S   0   0010 11.38                                                   4
 R6   B   S   0   0010  4.81                                                   4
 R3   B   S   0   0010  8.03                                                   4
 R14  B   S   0   0010 16.59                                                   4

 2016 0101 0010  0.0 L                                                         1
 STAT SP IPHASW D HRMN SECON CODA AMPLIT PERI AZIMU VELO AIN AR TRES W  DIS CAZ7
 R13  B   P   0 U 0010 31.53                                                   4
 R7   B   P   0 U 0010 23.18                                                   4
 R12  B   P   0 U 0010 28.57                                                   4
 R6   B   P   0 D 0010 22.87                                                   4
 R9   B   P   0 U 0010 28.30                                                   4
 R1   B   P   0 U 0010 25.99                                                   4
 R15  B   P   0 U 0010 30.72                                                   4
 R2   B   P   0 U 0010 23.29                                                   4
 R3   B   P   0 D 0010 23.55                                                   4
 R4   B   P   0 D 0010 26.40                                                   4
 R16  B   P   0 U 0010 31.69                                                   4
 R8   B   P   0 U 0010 26.20                                                   4
 R10  B   P   0 U 0010 26.78                                                   4
 R5   B   P   0 D 0010 25.78                                                   4
 R11  B   P   0 U 0010 26.90                                                   4
 R14  B   P   0 U 0010 30.65                                                   4
 R2   B   S   0   0010 25.69                                                   4
 R15  B   S   0   0010 38.56                                                   4
 R12  B   S   0   0010 34.85                                                   4
 R10  B   S   0   0010 31.75                                                   4
 R4   B   S   0   0010 31.08                                                   4
 R6   B   S   0   0010 24.97                                                   4
 R7   B   S   0   0010 25.50                                                   4
 R5   B   S   0   0010 30.01                                                   4
 R3   B   S   0   0010 26.15                                                   4
 R16  B   S   0   0010 40.25                                                   4
 R1   B   S   0   0010 30.37                                                   4
 R13  B   S   0   0010 39.96                                                   4
 R14  B   S   0   0010 38.45                                                   4
 R8   B   S   0   0010 30.75                                                   4
 R9   B   S   0   0010 34.39                                                   4
 R11  B   S   0   0010 31.96                                                   4

 2016 0101 0010  0.0 L                                                         1
 STAT SP IPHASW D HRMN SECON CODA AMPLIT PERI AZIMU VELO AIN AR TRES W  DIS CAZ7
 R9   B   P   0 D 0010 45.11                                                   4
 R12  B   P   0 U 0010 48.03                                                   4
 R16  B   P   0 U 0010 50.11                                                   4
 R1   B   P   0 U 0010 46.40                                                   4
 R3   B   P   0 D 0010 46.72                                                   4
 R15  B   P   0 U 0010 48.45                                                   4
 R13  B   P   0 U 0010 48.23                                                   4
 R7   B   P   0 D 0010 44.52                                                   4
 R2   B   P   0 U 0010 45.64                                                   4
 R5   B   P   0 U 0010 43.97                                                   4
 R6   B   P   0 U 0010 42.38                                                   4
 R8   B   P   0 D 0010 47.47                                                   4
 R11  B   P   0 U 0010 45.52                                                   4
 R14  B   P   0 U 0010 47.72                                                   4
 R4   B   P   0 D 0010 48.81                                                   4
 R10  B   P   0 D 0010 44.05                                                   4
 R4   B   S   0   0010 55.25                                                   4
 R1   B   S   0   0010 51.09                                                   4
 R6   B   S   0   0010 44.12                                                   4
 R15  B   S   0   0010 54.63                                                   4
 R16  B   S   0   0010 57.50                                                   4
 R13  B   S   0   0010 54.24                                                   4
 R11  B   S   0   0010 49.57                                                   4
 R9   B   S   0   0010 48.85                                                   4
 R2   B   S   0   0010 49.77                                                   4
 R5   B   S   0   0010 46.88                                                   4
 R14  B   S   0   0010 53.37                                                   4
 R10  B   S   0   0010 47.02                                                   4
 R7   B   S   0   0010 47.82                                                   4
 R12  B   S   0   0010 53.90                                                   4
 R8   B   S   0   0010 52.94                                                   4
 R3   B   S   0   0010 51.63                                                   4

 2016 0101 0011  0.0 L                                                         1
 STAT SP IPHASW D HRMN SECON CODA AMPLIT PERI AZIMU VELO AIN AR TRES W  DIS CAZ7
 R8   B   P   0 D 0011  5.60                                                   4
 R1   B   P   0 U 0011  9.17                                                   4
 R6   B   P   0 U 0011  4.64                                                   4
 R12  B   P   0 U 0011  5.03                                                   4
 R16  B   P   0 U 0011  7.17                                                   4
 R3   B   P   0 D 0011  7.31                                                   4
 R5   B   P   0 U 0011  6.99                                                   4
 R14  B   P   0 D 0011  6.51                                                   4
 R11  B   P   0 D 0011  2.91                                                   4
 R2   B   P   0 U 0011  7.68                                                   4
 R15  B   P   0 U 0011  6.05                                                   4
 R4   B   P   0 D 0011  8.23                                                   4
 R7   B   P   0 U 0011  3.87                                                   4
 R9   B   P   0 D 0011  6.57                                                   4
 R10  B   P   0 D 0011  3.89                                                   4
 R13  B   P   0 D 0011  8.24                                                   4
 R7   B   S   0   0011  6.70                                                   4
 R15  B   S   0   0011 10.48                                                   4
 R13  B   S   0   0011 14.27                                                   4
 R4   B   S   0   0011 14.24                                                   4
 R2   B   S   0   0011 13.30                                                   4
 R11  B   S   0   0011  5.05                                                   4
 R10  B   S   0   0011  6.74                                                   4
 R16  B   S   0   0011 12.41                                                   4
 R3   B   S   0   0011 12.65                                                   4
 R6   B   S   0   0011  8.04                                                   4
 R8   B   S   0   0011  9.69                                                   4
 R9   B   S   0   0011 11.38                                                   4
 R14  B   S   0   0011 11.28                                                   4
 R5   B   S   0   0011 12.10                                                   4
 R1   B   S   0   0011 15.87                                                   4
 R12  B   S   0   0011  8.71                                                   4

 2016 0101 0011  0.0 L                                                         1
 STAT SP IPHASW D HRMN SECON CODA AMPLIT PERI AZIMU VELO AIN AR TRES W  DIS CAZ7
 R6   B   P   0 D 0011 23.83                                                   4
 R12  B   P   0 U 0011 28.04                                                   4
 R3   B   P   0 U 0011 24.34                                                   4
 R14  B   P   0 U 0011 29.89                                                   4
 R2   B   P   0 U 0011 24.25                                                   4
 R7   B   P   0 D 0011 23.93                                                   4
 R9   B   P   0 D 0011 27.91                                                   4
 R16  B   P   0 U 0011 30.79                                                   4
 R11  B   P   0 D 0011 26.63                                                   4
 R10  B   P   0 D 0011 26.58                                                   4
 R15  B   P   0 U 0011 29.92                                                   4
 R4   B   P   0 D 0011 26.39                                                   4
 R8   B   P   0 U 0011 26.12                                                   4
 R13  B   P   0 U 0011 30.71                                                   4
 R1   B   P   0 U 0011 26.22                                                   4
 R5   B   P   0 D 0011 25.94                                                   4
 R3   B   S   0   0011 27.52                                                   4
 R5   B   S   0   0011 30.29                                                   4
 R15  B   S   0   0011 37.17                                                   4
 R12  B   S   0   0011 33.92                                                   4
 R10  B   S   0   0011 31.39                                                   4
 R14  B   S   0   0011 37.12                                                   4
 R8   B   S   0   0011 30.60                                                   4
 R4   B   S   0   0011 31.06                                                   4
 R6   B   S   0   0011 26.64                                                   4
 R1   B   S   0   0011 30.76                                                   4
 R2   B   S   0   0011 27.36                                                   4
 R9   B   S   0   0011 33.69                                                   4
 R13  B   S   0   0011 38.53                                                   4
 R11  B   S   0   0011 31.48                                                   4
 R7   B   S   0   0011 26.80                                                   4
 R16  B   S   0   0011 38.68                                                   4

 2016 0101 0011  0.0 L                                                         1
 STAT SP IPHASW D HRMN SECON CODA AMPLIT PERI AZIMU VELO AIN AR TRES W  DIS CAZ7
 R12  B   P   0 U 0011 47.98                                                   4
 R5   B   P   0 D 0011 45.90                                                   4
 R8   B   P   0 U 0011 45.84                                                   4
 R14  B   P   0 U 0011 50.17                                                   4
 R15  B   P   0 U 0011 50.16                                                   4
 R11  B   P   0 U 0011 46.44                                                   4
 R10  B   P   0 U 0011 46.46                                                   4
 R13  B   P   0 U 0011 51.10                                                   4
 R4   B   P   0 D 0011 46.22                                                   4
 R9   B   P   0 U 0011 48.02                                                   4
 R3   B   P   0 D 0011 43.75                                                   4
 R2   B   P   0 U 0011 43.78                                                   4
 R7   B   P   0 U 0011 42.94                                                   4
 R16  B   P   0 U 0011 51.08                                                   4
 R1   B   P   0 U 0011 46.28                                                   4
 R6   B   P   0 D 0011 42.98                                                   4
 R16  B   S   0   0011 59.17                                                   4
 R5   B   S   0   0011 50.21                                                   4
 R15  B   S   0   0011 57.59                                                   4
 R9   B   S   0   0011 53.89                                                   4
 R3   B   S   0   0011 46.49                                                   4
 R14  B   S   0   0011 57.60                                                   4
 R8   B   S   0   0011 50.11                                                   4
 R7   B   S   0   0011 45.09                                                   4
 R11  B   S   0   0011 51.16                                                   4
 R4   B   S   0   0011 50.77                                                   4
 R1   B   S   0   0011 50.87                                                   4
 R2   B   S   0   0011 46.55                                                   4
 R12  B   S   0   0011 53.82                                                   4
 R6   B   S   0   0011 45.17                                                   4
 R13  B   S   0   0011 59.22                                                   4
 R10  B   S   0   0011 51.19                                                   4

